{
"type": "FeatureCollection",
"crs": { "type": "name", "properties": { "name": "urn:ogc:def:crs:OGC:1.3:CRS84" } },
                                                                                
"features": [
{ "type": "Feature", "properties": { "Name": "Scape Mall", "Address": "2 Orchard Link 237978 Singapore", "Postalcode": 237978, "X-COORDINATES": 28265.124200, "Y-COORDINATES": 31468.609100 }, "geometry": { "type": "Point", "coordinates": [ 103.83570084030873, 1.300865435984355 ] } },
{ "type": "Feature", "properties": { "Name": "1 Moulmein Rise", "Address": "1 Moulmein Rise  308143 Singapore", "Postalcode": 308143, "X-COORDINATES": 29528.570900, "Y-COORDINATES": 33483.390300 }, "geometry": { "type": "Point", "coordinates": [ 103.84705358047418, 1.319086369614246 ] } },
{ "type": "Feature", "properties": { "Name": "7Jalan Bukit Merah", "Address": "7 Jalan Bukit Merah 150007 Singapore", "Postalcode": 150007, "X-COORDINATES": 25180.949500, "Y-COORDINATES": 29968.684700 }, "geometry": { "type": "Point", "coordinates": [ 103.80798826836936, 1.287300521370305 ] } },
{ "type": "Feature", "properties": { "Name": "8 @ Mount Sophia", "Address": "8 Mount Sophia  228463 Singapore", "Postalcode": 228463, "X-COORDINATES": 29406.493100, "Y-COORDINATES": 31479.603500 }, "geometry": { "type": "Point", "coordinates": [ 103.84595655753107, 1.300964834809306 ] } },
{ "type": "Feature", "properties": { "Name": "8 Lincoln", "Address": "8 Lincoln Road 308363 Singapore", "Postalcode": 308363, "X-COORDINATES": 29076.816100, "Y-COORDINATES": 33022.869000 }, "geometry": { "type": "Point", "coordinates": [ 103.84299431358984, 1.314921596884016 ] } },
{ "type": "Feature", "properties": { "Name": "Alessandrea", "Address": "31 Alexandra Road 159967 Singapore", "Postalcode": 159967, "X-COORDINATES": 26805.705000, "Y-COORDINATES": 30323.081200 }, "geometry": { "type": "Point", "coordinates": [ 103.82258734111039, 1.290505662771284 ] } },
{ "type": "Feature", "properties": { "Name": "Amaranda Gardens", "Address": "118 Serangoon Avenue 3 554773 Singapore", "Postalcode": 554773, "X-COORDINATES": 31745.691500, "Y-COORDINATES": 36841.278000 }, "geometry": { "type": "Point", "coordinates": [ 103.86697596847972, 1.349453719652428 ] } },
{ "type": "Feature", "properties": { "Name": "Ang Mo Kio Ave 2\/4", "Address": " Ang Mo Kio Ave 2\/4 560112 Singapore", "Postalcode": 560112, "X-COORDINATES": 28272.898100, "Y-COORDINATES": 39254.538100 }, "geometry": { "type": "Point", "coordinates": [ 103.83577076171817, 1.371278616736413 ] } },
{ "type": "Feature", "properties": { "Name": "Ang Mo Kio Avenue 3 Block 244 and 245 ", "Address": "244\/245 Ang Mo Kio Avenue 3 560245 Singapore", "Postalcode": 560245, "X-COORDINATES": 28159.003400, "Y-COORDINATES": 38857.402200 }, "geometry": { "type": "Point", "coordinates": [ 103.83474733498038, 1.36768706230419 ] } },
{ "type": "Feature", "properties": { "Name": "Arc at Tampines", "Address": "17  Tampines Avenue 8 529602 Singapore", "Postalcode": 529602, "X-COORDINATES": 38600.552900, "Y-COORDINATES": 36932.890000 }, "geometry": { "type": "Point", "coordinates": [ 103.92857119498186, 1.350280582854779 ] } },
{ "type": "Feature", "properties": { "Name": "Ardmore Park", "Address": "9A Ardmore Park 259956 Singapore", "Postalcode": 259956, "X-COORDINATES": 27544.069200, "Y-COORDINATES": 32423.955200 }, "geometry": { "type": "Point", "coordinates": [ 103.82922182032759, 1.309505247224941 ] } },
{ "type": "Feature", "properties": { "Name": "Arthur 118", "Address": "118 Arthur Road 439827 Singapore", "Postalcode": 439827, "X-COORDINATES": 34071.407000, "Y-COORDINATES": 31242.168400 }, "geometry": { "type": "Point", "coordinates": [ 103.88787287042042, 1.298816994917396 ] } },
{ "type": "Feature", "properties": { "Name": "Ascott Singapore Raffles Place ", "Address": "2 Finlayson Green 049247 Singapore", "Postalcode": 49247, "X-COORDINATES": 30030.092100, "Y-COORDINATES": 29391.836300 }, "geometry": { "type": "Point", "coordinates": [ 103.85155974266461, 1.282083768312908 ] } },
{ "type": "Feature", "properties": { "Name": "Aspella", "Address": "275A-275D\/277A-277D Compassvale Link 541275 Singapore", "Postalcode": 541275, "X-COORDINATES": 34803.465000, "Y-COORDINATES": 40540.797400 }, "geometry": { "type": "Point", "coordinates": [ 103.8944528202717, 1.382910295207797 ] } },
{ "type": "Feature", "properties": { "Name": "Atrina ", "Address": "272A - 272D\/273A - 273D Sengkang Central 540272 Singapore", "Postalcode": 540272, "X-COORDINATES": 34723.826600, "Y-COORDINATES": 40728.322500 }, "geometry": { "type": "Point", "coordinates": [ 103.8937372526177, 1.384606222527375 ] } },
{ "type": "Feature", "properties": { "Name": "Atrium Residence", "Address": "1 Lorong 28 Geylang 398406 Singapore", "Postalcode": 398406, "X-COORDINATES": 33831.022200, "Y-COORDINATES": 32814.996300 }, "geometry": { "type": "Point", "coordinates": [ 103.88571320119514, 1.313041136173616 ] } },
{ "type": "Feature", "properties": { "Name": "Axis @ Siglap", "Address": "59 East Coast Terrace 458950 Singapore", "Postalcode": 458950, "X-COORDINATES": 38072.657200, "Y-COORDINATES": 32684.965000 }, "geometry": { "type": "Point", "coordinates": [ 103.92382632470196, 1.311864084505374 ] } },
{ "type": "Feature", "properties": { "Name": "Balmoral 8", "Address": "8 Balmoral Road 259792 Singapore", "Postalcode": 259792, "X-COORDINATES": 27876.276700, "Y-COORDINATES": 32978.120800 }, "geometry": { "type": "Point", "coordinates": [ 103.83220686321202, 1.314516928517074 ] } },
{ "type": "Feature", "properties": { "Name": "Balmoral Heights", "Address": "8 Balmoral Crescent 259928 Singapore", "Postalcode": 259928, "X-COORDINATES": 28127.959100, "Y-COORDINATES": 33048.487700 }, "geometry": { "type": "Point", "coordinates": [ 103.83446835614257, 1.315153301913973 ] } },
{ "type": "Feature", "properties": { "Name": "Balmoral Hills", "Address": "9 Balmoral Park  259844 Singapore", "Postalcode": 259844, "X-COORDINATES": 27381.765200, "Y-COORDINATES": 33160.242500 }, "geometry": { "type": "Point", "coordinates": [ 103.82776342562497, 1.316163966864877 ] } },
{ "type": "Feature", "properties": { "Name": "Balmoral Plaza (Residential)", "Address": "271 Bukit Timah Road 259708 Singapore", "Postalcode": 259708, "X-COORDINATES": 28241.981500, "Y-COORDINATES": 33190.206600 }, "geometry": { "type": "Point", "coordinates": [ 103.8354929059774, 1.316434956921174 ] } },
{ "type": "Feature", "properties": { "Name": "Balmoral Point", "Address": "23 Balmoral Road 239806 Singapore", "Postalcode": 239806, "X-COORDINATES": 28773.207400, "Y-COORDINATES": 31179.459100 }, "geometry": { "type": "Point", "coordinates": [ 103.84026619097568, 1.298250456700816 ] } },
{ "type": "Feature", "properties": { "Name": "Balmoral Residences", "Address": "14 Balmoral Crescent 259910 Singapore", "Postalcode": 259910, "X-COORDINATES": 28242.477700, "Y-COORDINATES": 33126.715800 }, "geometry": { "type": "Point", "coordinates": [ 103.83549736409185, 1.315860768543667 ] } },
{ "type": "Feature", "properties": { "Name": "Bayou Residence", "Address": "349 Upper Paya Lebar Road 534957 Singapore", "Postalcode": 534957, "X-COORDINATES": 33221.911600, "Y-COORDINATES": 36496.121800 }, "geometry": { "type": "Point", "coordinates": [ 103.88024067050911, 1.3463320297232 ] } },
{ "type": "Feature", "properties": { "Name": "Baywater", "Address": "808 Bedok Reservoir Road 479243 Singapore", "Postalcode": 479243, "X-COORDINATES": 39040.913400, "Y-COORDINATES": 35511.488100 }, "geometry": { "type": "Point", "coordinates": [ 103.93252758776478, 1.33742578908563 ] } },
{ "type": "Feature", "properties": { "Name": "Beaufort On Nassim", "Address": "12 Nassim Road 258380 Singapore", "Postalcode": 258380, "X-COORDINATES": 27045.115600, "Y-COORDINATES": 32320.470300 }, "geometry": { "type": "Point", "coordinates": [ 103.82473848402327, 1.308569354856673 ] } },
{ "type": "Feature", "properties": { "Name": "Bedok Reservoir Garden", "Address": "709  Bedok Reservoir Road 470709 Singapore", "Postalcode": 470709, "X-COORDINATES": 37908.270400, "Y-COORDINATES": 35289.219600 }, "geometry": { "type": "Point", "coordinates": [ 103.92235007001973, 1.3354160667145 ] } },
{ "type": "Feature", "properties": { "Name": "Belle Vue Residences", "Address": "19  Oxley Walk 238592 Singapore", "Postalcode": 238592, "X-COORDINATES": 29058.611100, "Y-COORDINATES": 30931.867600 }, "geometry": { "type": "Point", "coordinates": [ 103.84283066155194, 1.296011317915313 ] } },
{ "type": "Feature", "properties": { "Name": "Bencoolen Residences", "Address": "51 Bencoolen Street 189630 Singapore", "Postalcode": 189630, "X-COORDINATES": 29896.131100, "Y-COORDINATES": 31303.677300 }, "geometry": { "type": "Point", "coordinates": [ 103.85035616622929, 1.299373794240569 ] } },
{ "type": "Feature", "properties": { "Name": "Beverly Hill MCST 809", "Address": "61 Grange Road 249570 Singapore", "Postalcode": 249570, "X-COORDINATES": 27137.208600, "Y-COORDINATES": 31207.582400 }, "geometry": { "type": "Point", "coordinates": [ 103.82556601471241, 1.298504791487262 ] } },
{ "type": "Feature", "properties": { "Name": "Bishan Loft", "Address": "31-35 Bishan Street 11 579819 Singapore", "Postalcode": 579819, "X-COORDINATES": 30084.356600, "Y-COORDINATES": 36627.642400 }, "geometry": { "type": "Point", "coordinates": [ 103.85204781746506, 1.347521837008412 ] } },
{ "type": "Feature", "properties": { "Name": "Bishan Point", "Address": "61 Bright Hill Drive 579653 Singapore", "Postalcode": 579653, "X-COORDINATES": 27930.265400, "Y-COORDINATES": 37969.742500 }, "geometry": { "type": "Point", "coordinates": [ 103.83269196705416, 1.359659384905715 ] } },
{ "type": "Feature", "properties": { "Name": "Block 325C Sengkang East Way", "Address": "325C Sengkang East Way 543325 Singapore", "Postalcode": 543325, "X-COORDINATES": 34458.239200, "Y-COORDINATES": 41681.858000 }, "geometry": { "type": "Point", "coordinates": [ 103.89135095984065, 1.393229711193632 ] } },
{ "type": "Feature", "properties": { "Name": "Blossoms @ Woodleigh", "Address": "10 Woodleigh Close  357905 Singapore", "Postalcode": 357905, "X-COORDINATES": 31923.296100, "Y-COORDINATES": 35399.364500 }, "geometry": { "type": "Point", "coordinates": [ 103.86857167035171, 1.336413545742472 ] } },
{ "type": "Feature", "properties": { "Name": "Blue Horizon", "Address": "21 West Coast Crescent 128045 Singapore", "Postalcode": 128045, "X-COORDINATES": 20445.282600, "Y-COORDINATES": 31035.872200 }, "geometry": { "type": "Point", "coordinates": [ 103.76543614006934, 1.296951000383295 ] } },
{ "type": "Feature", "properties": { "Name": "Buckley 18", "Address": "18 Buckley Road 309776 Singapore", "Postalcode": 309776, "X-COORDINATES": 28861.906800, "Y-COORDINATES": 33395.950600 }, "geometry": { "type": "Point", "coordinates": [ 103.84106325580406, 1.318295621849502 ] } },
{ "type": "Feature", "properties": { "Name": "Bullion Park Condominium", "Address": "172 Lentor Loop 789100 Singapore", "Postalcode": 789100, "X-COORDINATES": 28367.745700, "Y-COORDINATES": 41501.424400 }, "geometry": { "type": "Point", "coordinates": [ 103.83662306259949, 1.391598650962065 ] } },
{ "type": "Feature", "properties": { "Name": "Burlington Sqaure (Residential)", "Address": "175 Bencoolen Street 189649 Singapore", "Postalcode": 189649, "X-COORDINATES": 30157.051100, "Y-COORDINATES": 31621.089200 }, "geometry": { "type": "Point", "coordinates": [ 103.85270067106791, 1.302244338567953 ] } },
{ "type": "Feature", "properties": { "Name": "Butterworth 8", "Address": "8 Butterworth Lane 439423 Singapore", "Postalcode": 439423, "X-COORDINATES": 34915.037000, "Y-COORDINATES": 32699.626000 }, "geometry": { "type": "Point", "coordinates": [ 103.8954535816998, 1.311997544043672 ] } },
{ "type": "Feature", "properties": { "Name": "Calarasi", "Address": "31 Kim Keat Lane 328882 Singapore", "Postalcode": 328882, "X-COORDINATES": 30342.058600, "Y-COORDINATES": 34001.625700 }, "geometry": { "type": "Point", "coordinates": [ 103.85436322800112, 1.323773055686213 ] } },
{ "type": "Feature", "properties": { "Name": "Carabelle Condominium", "Address": "51 West Coast Way 127015 Singapore", "Postalcode": 127015, "X-COORDINATES": 19427.408100, "Y-COORDINATES": 33366.211100 }, "geometry": { "type": "Point", "coordinates": [ 103.75628945537142, 1.318025481203454 ] } },
{ "type": "Feature", "properties": { "Name": "Carissa Park Condominium", "Address": "2 Flora Drive 507025 Singapore", "Postalcode": 507025, "X-COORDINATES": 42502.328300, "Y-COORDINATES": 37916.154100 }, "geometry": { "type": "Point", "coordinates": [ 103.96363151633034, 1.359171213646134 ] } },
{ "type": "Feature", "properties": { "Name": "Carribean at Keppel Bay", "Address": "2 Keppel Bay Drive 098636 Singapore", "Postalcode": 98636, "X-COORDINATES": 26021.711500, "Y-COORDINATES": 27775.942900 }, "geometry": { "type": "Point", "coordinates": [ 103.81554299167172, 1.267470198046672 ] } },
{ "type": "Feature", "properties": { "Name": "Casa Clementi", "Address": "417  Clementi Avenue 1  120417 Singapore", "Postalcode": 120417, "X-COORDINATES": 21053.604300, "Y-COORDINATES": 32503.701600 }, "geometry": { "type": "Point", "coordinates": [ 103.77090184731499, 1.310225666149219 ] } },
{ "type": "Feature", "properties": { "Name": "Casa Meya", "Address": "25 Meyappa Chettiar Road 358464 Singapore", "Postalcode": 358464, "X-COORDINATES": 31736.892400, "Y-COORDINATES": 34788.606100 }, "geometry": { "type": "Point", "coordinates": [ 103.86689665034967, 1.33089008779992 ] } },
{ "type": "Feature", "properties": { "Name": "Casabella", "Address": "174 Duchess Avenue 269186 Singapore", "Postalcode": 269186, "X-COORDINATES": 24272.531200, "Y-COORDINATES": 34042.743300 }, "geometry": { "type": "Point", "coordinates": [ 103.79982527486044, 1.324144770567196 ] } },
{ "type": "Feature", "properties": { "Name": "Caspian", "Address": "52 Lakeside Drive 648316 Singapore", "Postalcode": 648316, "X-COORDINATES": 15132.160900, "Y-COORDINATES": 36068.089000 }, "geometry": { "type": "Point", "coordinates": [ 103.71769336838271, 1.342458755500222 ] } },
{ "type": "Feature", "properties": { "Name": "Central Horizon", "Address": "78A-C and 79A-E Toa Payoh Central-Central Horizon 312078 Singapore", "Postalcode": 321078, "X-COORDINATES": 30455.066800, "Y-COORDINATES": 34067.942800 }, "geometry": { "type": "Point", "coordinates": [ 103.85537867235695, 1.324372795161043 ] } },
{ "type": "Feature", "properties": { "Name": "Central Place", "Address": "1 Hougang Street 91 538692 Singapore", "Postalcode": 538692, "X-COORDINATES": 33133.884600, "Y-COORDINATES": 39739.864000 }, "geometry": { "type": "Point", "coordinates": [ 103.87945025109718, 1.375667283524171 ] } },
{ "type": "Feature", "properties": { "Name": "Central Square", "Address": "20 Havelock Road 059765 Singapore", "Postalcode": 59765, "X-COORDINATES": 29103.416800, "Y-COORDINATES": 30065.615900 }, "geometry": { "type": "Point", "coordinates": [ 103.8432332299717, 1.288177240512643 ] } },
{ "type": "Feature", "properties": { "Name": "Central View", "Address": "50 Hougang Street 11 538749 Singapore", "Postalcode": 538749, "X-COORDINATES": 33031.022200, "Y-COORDINATES": 37248.659800 }, "geometry": { "type": "Point", "coordinates": [ 103.87852553769176, 1.353137746249048 ] } },
{ "type": "Feature", "properties": { "Name": "Ceylon Crest", "Address": "30 Ceylon Road 429623 Singapore", "Postalcode": 429623, "X-COORDINATES": 35744.371300, "Y-COORDINATES": 32072.199200 }, "geometry": { "type": "Point", "coordinates": [ 103.90290539767011, 1.306323124169711 ] } },
{ "type": "Feature", "properties": { "Name": "Changi Rise Condominium", "Address": "2 Simei Rise 528800 Singapore", "Postalcode": 528800, "X-COORDINATES": 42089.790300, "Y-COORDINATES": 36543.357700 }, "geometry": { "type": "Point", "coordinates": [ 103.95992395430834, 1.346756360418143 ] } },
{ "type": "Feature", "properties": { "Name": "Charisma View", "Address": "167 Jalan Jurong Kechil 598671 Singapore", "Postalcode": 598671, "X-COORDINATES": 20774.719900, "Y-COORDINATES": 36282.886800 }, "geometry": { "type": "Point", "coordinates": [ 103.76839504536471, 1.34440319321974 ] } },
{ "type": "Feature", "properties": { "Name": "City Square Residences", "Address": "8 Kitchener Link  207229 Singapore", "Postalcode": 207229, "X-COORDINATES": 30688.922200, "Y-COORDINATES": 32600.899900 }, "geometry": { "type": "Point", "coordinates": [ 103.85747986080068, 1.311105358898419 ] } },
{ "type": "Feature", "properties": { "Name": "City View @ Boon Keng", "Address": " Boon Keng Road 332008 Singapore", "Postalcode": 332008, "X-COORDINATES": 31098.980700, "Y-COORDINATES": 33187.477800 }, "geometry": { "type": "Point", "coordinates": [ 103.86116449548884, 1.316410123265074 ] } },
{ "type": "Feature", "properties": { "Name": "Citylights", "Address": "82 Jellicoe Road 208741 Singapore", "Postalcode": 208741, "X-COORDINATES": 31310.899400, "Y-COORDINATES": 32356.581300 }, "geometry": { "type": "Point", "coordinates": [ 103.86306860376752, 1.308895767431263 ] } },
{ "type": "Feature", "properties": { "Name": "Clementi Green", "Address": "1 - 62 Clementi Crescent 599504 Singapore", "Postalcode": 599504, "X-COORDINATES": 21315.233500, "Y-COORDINATES": 34066.598400 }, "geometry": { "type": "Point", "coordinates": [ 103.77325237304954, 1.324360002773901 ] } },
{ "type": "Feature", "properties": { "Name": "Clementi Meadows", "Address": "315 - 320 Clementi Avenue 4 120315 Singapore", "Postalcode": 120315, "X-COORDINATES": 20443.491100, "Y-COORDINATES": 33415.374600 }, "geometry": { "type": "Point", "coordinates": [ 103.76541946428706, 1.318470365591051 ] } },
{ "type": "Feature", "properties": { "Name": "Clementi Town Centre (Residential)", "Address": "441A  Clementi Avenue 3 121441 Singapore", "Postalcode": 121441, "X-COORDINATES": 20374.281800, "Y-COORDINATES": 32991.737900 }, "geometry": { "type": "Point", "coordinates": [ 103.76479768808426, 1.314639130502507 ] } },
{ "type": "Feature", "properties": { "Name": "Clementiwoods Condominium", "Address": "78-90 West Coast Road 126816 Singapore", "Postalcode": 126816, "X-COORDINATES": 20678.099400, "Y-COORDINATES": 30928.703100 }, "geometry": { "type": "Point", "coordinates": [ 103.7675281248999, 1.29598185698409 ] } },
{ "type": "Feature", "properties": { "Name": "Cliveden at Grange", "Address": "106 Grange Road 249594 Singapore", "Postalcode": 249594, "X-COORDINATES": 27199.291300, "Y-COORDINATES": 31373.283700 }, "geometry": { "type": "Point", "coordinates": [ 103.82612385113681, 1.30000333738204 ] } },
{ "type": "Feature", "properties": { "Name": "Coastarina", "Address": "510 East Coast Road 459135 Singapore", "Postalcode": 459135, "X-COORDINATES": 37463.048800, "Y-COORDINATES": 32430.065500 }, "geometry": { "type": "Point", "coordinates": [ 103.91834862186971, 1.309559059212803 ] } },
{ "type": "Feature", "properties": { "Name": "Commonwealth View", "Address": "89\/90\/91\/91A Tanglin Halt Road 141089 Singapore", "Postalcode": 141089, "X-COORDINATES": 24171.956900, "Y-COORDINATES": 31505.668600 }, "geometry": { "type": "Point", "coordinates": [ 103.79892187465445, 1.301200353994264 ] } },
{ "type": "Feature", "properties": { "Name": "Compassvale Arcadia  ", "Address": "267A Compassvale Link 541267 Singapore", "Postalcode": 541267, "X-COORDINATES": 35182.932500, "Y-COORDINATES": 40545.455600 }, "geometry": { "type": "Point", "coordinates": [ 103.89786262041372, 1.382952331459509 ] } },
{ "type": "Feature", "properties": { "Name": "Compassvale Beacon", "Address": "211B  Compassvale Lane  540210 Singapore", "Postalcode": 540210, "X-COORDINATES": 35424.008400, "Y-COORDINATES": 40804.806300 }, "geometry": { "type": "Point", "coordinates": [ 103.90002893294096, 1.385297744430509 ] } },
{ "type": "Feature", "properties": { "Name": "Coral Edge ", "Address": "171-172 Punggol Field and Edgedale Plains 820171 Singapore", "Postalcode": 820171, "X-COORDINATES": 36820.756200, "Y-COORDINATES": 41864.405400 }, "geometry": { "type": "Point", "coordinates": [ 103.91258008484296, 1.394879980486598 ] } },
{ "type": "Feature", "properties": { "Name": "Coral Edge Block 129-138", "Address": "129-138 Edgedale Plains 828129 Singapore", "Postalcode": 828129, "X-COORDINATES": 36505.254000, "Y-COORDINATES": 41695.991300 }, "geometry": { "type": "Point", "coordinates": [ 103.90974499940108, 1.393356999536694 ] } },
{ "type": "Feature", "properties": { "Name": "Costa Del Sol", "Address": "74 Bayshore Road 469989 Singapore", "Postalcode": 469989, "X-COORDINATES": 39797.038400, "Y-COORDINATES": 32611.758900 }, "geometry": { "type": "Point", "coordinates": [ 103.9393206878111, 1.311201423335724 ] } },
{ "type": "Feature", "properties": { "Name": "Country Park Condominium", "Address": "41 Bedok Road 469362 Singapore", "Postalcode": 469362, "X-COORDINATES": 41465.152600, "Y-COORDINATES": 33717.071400 }, "geometry": { "type": "Point", "coordinates": [ 103.95430996315959, 1.321196773094089 ] } },
{ "type": "Feature", "properties": { "Name": "Crane Court ", "Address": "38 Crane Road 429381 Singapore", "Postalcode": 429381, "X-COORDINATES": 35216.697600, "Y-COORDINATES": 32717.875000 }, "geometry": { "type": "Point", "coordinates": [ 103.89816415340577, 1.312162512252307 ] } },
{ "type": "Feature", "properties": { "Name": "Cuscaden Residences", "Address": "28 Cuscaden Road 249723 Singapore", "Postalcode": 249723, "X-COORDINATES": 27280.099300, "Y-COORDINATES": 31914.740900 }, "geometry": { "type": "Point", "coordinates": [ 103.82684993487341, 1.304900087575 ] } },
{ "type": "Feature", "properties": { "Name": "D' Banyan", "Address": "83 Jalan Sendudok 769468 Singapore", "Postalcode": 769468, "X-COORDINATES": 27126.642700, "Y-COORDINATES": 47305.570700 }, "geometry": { "type": "Point", "coordinates": [ 103.82547060036238, 1.44408924438366 ] } },
{ "type": "Feature", "properties": { "Name": "D' Evelyn", "Address": "18 Evelyn Road 309307 Singapore", "Postalcode": 309307, "X-COORDINATES": 28705.973100, "Y-COORDINATES": 33226.042700 }, "geometry": { "type": "Point", "coordinates": [ 103.83966210729517, 1.316759038810175 ] } },
{ "type": "Feature", "properties": { "Name": "d'Leedon", "Address": "1 Leedon Heights 267939 Singapore", "Postalcode": 267939, "X-COORDINATES": 24544.132500, "Y-COORDINATES": 33146.215300 }, "geometry": { "type": "Point", "coordinates": [ 103.8022658584371, 1.3160369213797 ] } },
{ "type": "Feature", "properties": { "Name": "D'Lotus", "Address": "10 Lorong Ampas 328784 Singapore", "Postalcode": 328784, "X-COORDINATES": 30245.544900, "Y-COORDINATES": 34260.957500 }, "geometry": { "type": "Point", "coordinates": [ 103.85349601979466, 1.326118367840577 ] } },
{ "type": "Feature", "properties": { "Name": "D'Weave", "Address": "5 Lorong 39 Geylang  387786 Singapore", "Postalcode": 387786, "X-COORDINATES": 33142.540200, "Y-COORDINATES": 32926.889900 }, "geometry": { "type": "Point", "coordinates": [ 103.87952686950473, 1.314053184800798 ] } },
{ "type": "Feature", "properties": { "Name": "Dahlia Park Condominium", "Address": "9 Flora Drive 507013 Singapore", "Postalcode": 507013, "X-COORDINATES": 42675.666200, "Y-COORDINATES": 37903.115100 }, "geometry": { "type": "Point", "coordinates": [ 103.96518906197234, 1.359053208825493 ] } },
{ "type": "Feature", "properties": { "Name": "Dakota Residences", "Address": "34 Dakota Crescent 399936 Singapore", "Postalcode": 399936, "X-COORDINATES": 33983.760700, "Y-COORDINATES": 32077.638800 }, "geometry": { "type": "Point", "coordinates": [ 103.8870854897833, 1.306372708627918 ] } },
{ "type": "Feature", "properties": { "Name": "Dalvey Villas ", "Address": "10A- 10K Dalvey Estates 259527 Singapore", "Postalcode": 259527, "X-COORDINATES": 26639.605500, "Y-COORDINATES": 33181.857200 }, "geometry": { "type": "Point", "coordinates": [ 103.8210947431085, 1.3163594186152 ] } },
{ "type": "Feature", "properties": { "Name": "Damai Grove", "Address": "613B  Punggol Drive  822613 Singapore", "Postalcode": 822613, "X-COORDINATES": 36341.933900, "Y-COORDINATES": 42903.476800 }, "geometry": { "type": "Point", "coordinates": [ 103.90827778669637, 1.404277102525501 ] } },
{ "type": "Feature", "properties": { "Name": "De Lente", "Address": "104 Holland Road 278547 Singapore", "Postalcode": 278547, "X-COORDINATES": 24482.260600, "Y-COORDINATES": 32674.336200 }, "geometry": { "type": "Point", "coordinates": [ 103.80170996178069, 1.311769406985601 ] } },
{ "type": "Feature", "properties": { "Name": "De Paradiso", "Address": "20 Martaban Road 328644 Singapore", "Postalcode": 328644, "X-COORDINATES": 29926.506800, "Y-COORDINATES": 34035.882500 }, "geometry": { "type": "Point", "coordinates": [ 103.85062927513901, 1.324082891091833 ] } },
{ "type": "Feature", "properties": { "Name": "Domus", "Address": "8 Irrawaddy Road 329564 Singapore", "Postalcode": 329564, "X-COORDINATES": 29356.660300, "Y-COORDINATES": 34216.132400 }, "geometry": { "type": "Point", "coordinates": [ 103.84550890699515, 1.3257130380087 ] } },
{ "type": "Feature", "properties": { "Name": "Dover Gardens ", "Address": "28\/28A-8D Dover Crescent  130028 Singapore", "Postalcode": 130028, "X-COORDINATES": 22264.194000, "Y-COORDINATES": 31866.238600 }, "geometry": { "type": "Point", "coordinates": [ 103.78177969678644, 1.304460926846547 ] } },
{ "type": "Feature", "properties": { "Name": "Draycott Drive", "Address": "38 Draycott Drive 259428 Singapore", "Postalcode": 259428, "X-COORDINATES": 27709.588400, "Y-COORDINATES": 32445.737200 }, "geometry": { "type": "Point", "coordinates": [ 103.83070909022024, 1.309702237961795 ] } },
{ "type": "Feature", "properties": { "Name": "Duchess Manor", "Address": "20 Duchess Road 268988 Singapore", "Postalcode": 268988, "X-COORDINATES": 25077.353300, "Y-COORDINATES": 34088.670100 }, "geometry": { "type": "Point", "coordinates": [ 103.80705702767102, 1.324560204007403 ] } },
{ "type": "Feature", "properties": { "Name": "Duchess Residences", "Address": "110 Duchess Avenue 266313 Singapore", "Postalcode": 266313, "X-COORDINATES": 24465.238800, "Y-COORDINATES": 34030.337600 }, "geometry": { "type": "Point", "coordinates": [ 103.80155685713771, 1.324032600766185 ] } },
{ "type": "Feature", "properties": { "Name": "Duet", "Address": "78 Holland Road 258873 Singapore", "Postalcode": 258873, "X-COORDINATES": 24779.581200, "Y-COORDINATES": 32593.885300 }, "geometry": { "type": "Point", "coordinates": [ 103.80438154161644, 1.311041870061509 ] } },
{ "type": "Feature", "properties": { "Name": "Dunman View", "Address": "100 Haig Road 438797 Singapore", "Postalcode": 438797, "X-COORDINATES": 35095.367400, "Y-COORDINATES": 32473.632600 }, "geometry": { "type": "Point", "coordinates": [ 103.8970738865314, 1.309953699716673 ] } },
{ "type": "Feature", "properties": { "Name": "East Meadows ", "Address": "32 Tanah Merah Kechil Road 465559 Singapore", "Postalcode": 465559, "X-COORDINATES": 40341.662200, "Y-COORDINATES": 34612.344000 }, "geometry": { "type": "Point", "coordinates": [ 103.94421519219308, 1.32929376048428 ] } },
{ "type": "Feature", "properties": { "Name": "East Signature Condominium", "Address": "1A Elliot Walk 458656 Singapore", "Postalcode": 458656, "X-COORDINATES": 38956.970500, "Y-COORDINATES": 32728.229600 }, "geometry": { "type": "Point", "coordinates": [ 103.93177231943521, 1.312255051823388 ] } },
{ "type": "Feature", "properties": { "Name": "Eastcove Residences", "Address": "302 Joo Chiat Place 427982 Singapore", "Postalcode": 427982, "X-COORDINATES": 36405.862800, "Y-COORDINATES": 32969.725300 }, "geometry": { "type": "Point", "coordinates": [ 103.90884944965742, 1.31443985386567 ] } },
{ "type": "Feature", "properties": { "Name": "Eastern Lagoon Condominium II", "Address": "208 Upper East Coast Road 455287 Singapore", "Postalcode": 455287, "X-COORDINATES": 39136.966800, "Y-COORDINATES": 32727.893100 }, "geometry": { "type": "Point", "coordinates": [ 103.93338967248434, 1.312251944066115 ] } },
{ "type": "Feature", "properties": { "Name": "Eastern Residence", "Address": "285 Joo Chiat Place 427966 Singapore", "Postalcode": 427966, "X-COORDINATES": 36270.335900, "Y-COORDINATES": 33025.780200 }, "geometry": { "type": "Point", "coordinates": [ 103.90763168853232, 1.314946830920701 ] } },
{ "type": "Feature", "properties": { "Name": "Eastwood Centre", "Address": "20 Eastwood Road 486442 Singapore", "Postalcode": 486442, "X-COORDINATES": 41601.554300, "Y-COORDINATES": 33755.306700 }, "geometry": { "type": "Point", "coordinates": [ 103.95553561825687, 1.321542498479425 ] } },
{ "type": "Feature", "properties": { "Name": "Ecoville", "Address": "10 Martaban Road 328668 Singapore", "Postalcode": 328668, "X-COORDINATES": 29955.558900, "Y-COORDINATES": 34007.935400 }, "geometry": { "type": "Point", "coordinates": [ 103.85089032204105, 1.323830145570011 ] } },
{ "type": "Feature", "properties": { "Name": "Eden View", "Address": "6 Eden Grove 539102 Singapore", "Postalcode": 539102, "X-COORDINATES": 32367.457400, "Y-COORDINATES": 36265.087100 }, "geometry": { "type": "Point", "coordinates": [ 103.87256284127598, 1.344242770949265 ] } },
{ "type": "Feature", "properties": { "Name": "Edgedale Green", "Address": "632 - 636 Punggol Drive 820632 Singapore", "Postalcode": 820632, "X-COORDINATES": 36924.214300, "Y-COORDINATES": 42483.140800 }, "geometry": { "type": "Point", "coordinates": [ 103.91350992727398, 1.400475563955783 ] } },
{ "type": "Feature", "properties": { "Name": "Edgefield Plain ", "Address": "111 - 119 Edgefield Plains 820111 Singapore", "Postalcode": 820111, "X-COORDINATES": 36152.923400, "Y-COORDINATES": 42063.187200 }, "geometry": { "type": "Point", "coordinates": [ 103.90657913531605, 1.396677885871202 ] } },
{ "type": "Feature", "properties": { "Name": "Edgefield Plains ", "Address": "101 - 105 Edgefield Plains 820101 Singapore", "Postalcode": 820101, "X-COORDINATES": 36067.111900, "Y-COORDINATES": 42262.637000 }, "geometry": { "type": "Point", "coordinates": [ 103.90580810586317, 1.398481660811067 ] } },
{ "type": "Feature", "properties": { "Name": "Edgefield Plains and Punggol Central Block 178-193", "Address": "178-193 Edgefield Plains and Punggol Central 820178 Singapore", "Postalcode": 820178, "X-COORDINATES": 36359.001600, "Y-COORDINATES": 42364.915200 }, "geometry": { "type": "Point", "coordinates": [ 103.90843099889734, 1.399406544330615 ] } },
{ "type": "Feature", "properties": { "Name": "Esterina", "Address": "12 Haig Avenue 438867 Singapore", "Postalcode": 438867, "X-COORDINATES": 35407.749300, "Y-COORDINATES": 32231.881900 }, "geometry": { "type": "Point", "coordinates": [ 103.89988073009394, 1.307767319684022 ] } },
{ "type": "Feature", "properties": { "Name": "Estique", "Address": "3 Rose Lane 437361 Singapore", "Postalcode": 437361, "X-COORDINATES": 34725.245700, "Y-COORDINATES": 32482.551900 }, "geometry": { "type": "Point", "coordinates": [ 103.89374816727612, 1.310034445582962 ] } },
{ "type": "Feature", "properties": { "Name": "Everitt Green", "Address": "9 Everitt Road North 428522 Singapore", "Postalcode": 428522, "X-COORDINATES": 35628.183800, "Y-COORDINATES": 33164.867800 }, "geometry": { "type": "Point", "coordinates": [ 103.90186166756629, 1.316204855263744 ] } },
{ "type": "Feature", "properties": { "Name": "Fernvale Grove", "Address": "436 Fernvale Road 790436 Singapore", "Postalcode": 790436, "X-COORDINATES": 32822.675900, "Y-COORDINATES": 41604.927300 }, "geometry": { "type": "Point", "coordinates": [ 103.87665412210143, 1.392534295798283 ] } },
{ "type": "Feature", "properties": { "Name": "Fernvale Lane", "Address": "403 - 405 Fernvale Lane 790403 Singapore", "Postalcode": 790403, "X-COORDINATES": 32418.697900, "Y-COORDINATES": 41172.189800 }, "geometry": { "type": "Point", "coordinates": [ 103.87302399666183, 1.388620838338728 ] } },
{ "type": "Feature", "properties": { "Name": "Fernvale Vista", "Address": " Fernvale Road 793441 Singapore", "Postalcode": 793441, "X-COORDINATES": 32613.968100, "Y-COORDINATES": 41568.026000 }, "geometry": { "type": "Point", "coordinates": [ 103.87477871255662, 1.39220060770165 ] } },
{ "type": "Feature", "properties": { "Name": "Forest Hills Condominium", "Address": "31 Transit Road 778903 Singapore", "Postalcode": 778903, "X-COORDINATES": 26249.014200, "Y-COORDINATES": 42977.147600 }, "geometry": { "type": "Point", "coordinates": [ 103.81758450736186, 1.40494451024637 ] } },
{ "type": "Feature", "properties": { "Name": "Fortune Jade Condominium ", "Address": "501 Duman Road 439193 Singapore", "Postalcode": 439193, "X-COORDINATES": 34846.584400, "Y-COORDINATES": 32469.625600 }, "geometry": { "type": "Point", "coordinates": [ 103.8948384509636, 1.309917518060197 ] } },
{ "type": "Feature", "properties": { "Name": "Four Seasons Park", "Address": "8 Cuscaden Walk 249692 Singapore", "Postalcode": 249692, "X-COORDINATES": 27460.313400, "Y-COORDINATES": 31733.252900 }, "geometry": { "type": "Point", "coordinates": [ 103.82846924595297, 1.303258777716339 ] } },
{ "type": "Feature", "properties": { "Name": "Freesia Woods", "Address": "61 Sunset Way 597086 Singapore", "Postalcode": 597086, "X-COORDINATES": 20605.871000, "Y-COORDINATES": 34006.888000 }, "geometry": { "type": "Point", "coordinates": [ 103.76687838831431, 1.323819839676759 ] } },
{ "type": "Feature", "properties": { "Name": "Ghim Moh Gardens", "Address": "7\/8\/13-21 Ghim Moh Road 270007 Singapore", "Postalcode": 270007, "X-COORDINATES": 22870.844100, "Y-COORDINATES": 32621.155800 }, "geometry": { "type": "Point", "coordinates": [ 103.78723060401778, 1.311288236078497 ] } },
{ "type": "Feature", "properties": { "Name": "Global Ville ", "Address": "20 Jalan Raja Udang 329192 Singapore", "Postalcode": 329192, "X-COORDINATES": 29033.345900, "Y-COORDINATES": 34415.569300 }, "geometry": { "type": "Point", "coordinates": [ 103.842603758661, 1.327516687387219 ] } },
{ "type": "Feature", "properties": { "Name": "Golden Jasmine", "Address": "152B Bishan Street 11 572152 Singapore", "Postalcode": 572152, "X-COORDINATES": 30299.959300, "Y-COORDINATES": 36383.683600 }, "geometry": { "type": "Point", "coordinates": [ 103.85398512297614, 1.345315544708698 ] } },
{ "type": "Feature", "properties": { "Name": "Goldenhill Park Condominium", "Address": "60 Mei Hwan Drive 568426 Singapore", "Postalcode": 568426, "X-COORDINATES": 31264.897500, "Y-COORDINATES": 37246.183900 }, "geometry": { "type": "Point", "coordinates": [ 103.86265577688131, 1.35311560035697 ] } },
{ "type": "Feature", "properties": { "Name": "Goodwood Gardens", "Address": "4 Balmoral Crescent 259889 Singapore", "Postalcode": 259889, "X-COORDINATES": 28095.670100, "Y-COORDINATES": 32994.178700 }, "geometry": { "type": "Point", "coordinates": [ 103.83417822303832, 1.314662150607631 ] } },
{ "type": "Feature", "properties": { "Name": "Grandeur 8", "Address": "18 Ang Mo Kio Central 3 567749 Singapore", "Postalcode": 567749, "X-COORDINATES": 29491.790800, "Y-COORDINATES": 39824.962900 }, "geometry": { "type": "Point", "coordinates": [ 103.84672340545009, 1.376437298161038 ] } },
{ "type": "Feature", "properties": { "Name": "Haig Court", "Address": "152 Haig Road 438795 Singapore", "Postalcode": 438795, "X-COORDINATES": 35177.070100, "Y-COORDINATES": 32075.057800 }, "geometry": { "type": "Point", "coordinates": [ 103.8978079324857, 1.306349113144622 ] } },
{ "type": "Feature", "properties": { "Name": "Hanifah Building", "Address": "118 Keng Lee Road 308404 Singapore", "Postalcode": 308404, "X-COORDINATES": 29233.397500, "Y-COORDINATES": 32931.940200 }, "geometry": { "type": "Point", "coordinates": [ 103.84440127261472, 1.314099263053833 ] } },
{ "type": "Feature", "properties": { "Name": "HDB Golden Lotus", "Address": "62B Lorong 4 Toa Payoh  312062 Singapore", "Postalcode": 312062, "X-COORDINATES": 29998.730200, "Y-COORDINATES": 35335.916600 }, "geometry": { "type": "Point", "coordinates": [ 103.85127832599056, 1.335839933860989 ] } },
{ "type": "Feature", "properties": { "Name": "HDB The Periwinkle", "Address": "194-195 Punggol Road 820194 Singapore", "Postalcode": 820194, "X-COORDINATES": 36146.779500, "Y-COORDINATES": 42654.362700 }, "geometry": { "type": "Point", "coordinates": [ 103.90652409319371, 1.402024261970826 ] } },
{ "type": "Feature", "properties": { "Name": "HDB The Sundial", "Address": "168B Punggol East 822168 Singapore", "Postalcode": 822168, "X-COORDINATES": 36976.443000, "Y-COORDINATES": 41821.955300 }, "geometry": { "type": "Point", "coordinates": [ 103.91397904050788, 1.394496029582284 ] } },
{ "type": "Feature", "properties": { "Name": "HDB Wellington", "Address": "512\/513 Wellington Circle 750512 Singapore", "Postalcode": 750512, "X-COORDINATES": 26550.794300, "Y-COORDINATES": 48391.915100 }, "geometry": { "type": "Point", "coordinates": [ 103.82029597761002, 1.453913724276245 ] } },
{ "type": "Feature", "properties": { "Name": "Helios Residences", "Address": "15\/17 Cairnhill Circle 229815 Singapore", "Postalcode": 229815, "X-COORDINATES": 28498.822000, "Y-COORDINATES": 32098.572100 }, "geometry": { "type": "Point", "coordinates": [ 103.83780073099051, 1.306562596579063 ] } },
{ "type": "Feature", "properties": { "Name": "Heritage Residence", "Address": "101 Lorong L Telok Kurau 425537 Singapore", "Postalcode": 425537, "X-COORDINATES": 36862.834100, "Y-COORDINATES": 32761.610400 }, "geometry": { "type": "Point", "coordinates": [ 103.91295550258405, 1.312557609648378 ] } },
{ "type": "Feature", "properties": { "Name": "Highland Centre (Residential)", "Address": "22 Yio Chu Kang Road 545535 Singapore", "Postalcode": 545535, "X-COORDINATES": 32889.569500, "Y-COORDINATES": 37497.832100 }, "geometry": { "type": "Point", "coordinates": [ 103.87725453534556, 1.355391194661738 ] } },
{ "type": "Feature", "properties": { "Name": "Hillington Green", "Address": "51 Hillview Ave 669565 Singapore", "Postalcode": 669565, "X-COORDINATES": 20400.596300, "Y-COORDINATES": 37852.604500 }, "geometry": { "type": "Point", "coordinates": [ 103.76503292239832, 1.358599059218909 ] } },
{ "type": "Feature", "properties": { "Name": "Hillview 128", "Address": "128 Hillview Avenue 669595 Singapore", "Postalcode": 669595, "X-COORDINATES": 19935.144300, "Y-COORDINATES": 37700.898300 }, "geometry": { "type": "Point", "coordinates": [ 103.76085057211357, 1.357226960878229 ] } },
{ "type": "Feature", "properties": { "Name": "Hillview Regency ", "Address": "26 Bukit Batok East Avenue 2 659920 Singapore", "Postalcode": 659920, "X-COORDINATES": 19768.676200, "Y-COORDINATES": 37138.141400 }, "geometry": { "type": "Point", "coordinates": [ 103.75935490247073, 1.35213754650359 ] } },
{ "type": "Feature", "properties": { "Name": "Holland Mews", "Address": "67 Holland Road 258867 Singapore", "Postalcode": 258867, "X-COORDINATES": 24985.951800, "Y-COORDINATES": 32404.686100 }, "geometry": { "type": "Point", "coordinates": [ 103.80623590060242, 1.309330840307777 ] } },
{ "type": "Feature", "properties": { "Name": "Hong Lim Complex (Residential)", "Address": "531 Upper Cross Street 050531 Singapore", "Postalcode": 50531, "X-COORDINATES": 29378.404900, "Y-COORDINATES": 29620.169000 }, "geometry": { "type": "Point", "coordinates": [ 103.84570409094694, 1.284148764322095 ] } },
{ "type": "Feature", "properties": { "Name": "Hougang Avenue 10 Block 512 ", "Address": "512 Hougang Avenue 10 530512 Singapore", "Postalcode": 530512, "X-COORDINATES": 34154.336300, "Y-COORDINATES": 39254.004900 }, "geometry": { "type": "Point", "coordinates": [ 103.88861964527408, 1.371273153473126 ] } },
{ "type": "Feature", "properties": { "Name": "Hundred Trees", "Address": "83 West Coast Drive 127999 Singapore", "Postalcode": 127999, "X-COORDINATES": 19647.755800, "Y-COORDINATES": 33061.324300 }, "geometry": { "type": "Point", "coordinates": [ 103.75826947349482, 1.31526825588887 ] } },
{ "type": "Feature", "properties": { "Name": "Icon (Residential)", "Address": "10 Gopeng Street  078878 Singapore", "Postalcode": 78878, "X-COORDINATES": 29244.002300, "Y-COORDINATES": 28627.343100 }, "geometry": { "type": "Point", "coordinates": [ 103.8444963917819, 1.275170000655077 ] } },
{ "type": "Feature", "properties": { "Name": "Intero", "Address": "8 Leicester Road 358841 Singapore", "Postalcode": 358841, "X-COORDINATES": 31787.626600, "Y-COORDINATES": 34717.736100 }, "geometry": { "type": "Point", "coordinates": [ 103.86735251672029, 1.330249158450507 ] } },
{ "type": "Feature", "properties": { "Name": "Ivory", "Address": "15 Ceylon Lane 423468 Singapore", "Postalcode": 423468, "X-COORDINATES": 35466.727300, "Y-COORDINATES": 32633.785300 }, "geometry": { "type": "Point", "coordinates": [ 103.90041077185862, 1.31140197559412 ] } },
{ "type": "Feature", "properties": { "Name": "Jaya Tower", "Address": "431\/433 Bukit Timah Road 259738 Singapore", "Postalcode": 259738, "X-COORDINATES": 26960.499500, "Y-COORDINATES": 33596.246000 }, "geometry": { "type": "Point", "coordinates": [ 103.82397812478054, 1.32010701703474 ] } },
{ "type": "Feature", "properties": { "Name": "Jing Suites ", "Address": "275 Changi Road 419755 Singapore", "Postalcode": 419755, "X-COORDINATES": 36136.737400, "Y-COORDINATES": 33370.987200 }, "geometry": { "type": "Point", "coordinates": [ 103.90643133069412, 1.318068794218952 ] } },
{ "type": "Feature", "properties": { "Name": "JLB Residences", "Address": "169 Jalan Loyang Besar 509422 Singapore", "Postalcode": 509422, "X-COORDINATES": 42160.216900, "Y-COORDINATES": 40118.646800 }, "geometry": { "type": "Point", "coordinates": [ 103.96055847604428, 1.379089886656866 ] } },
{ "type": "Feature", "properties": { "Name": "Kallang Heights", "Address": "2A - 2D\/3A - 3D Upper Boon Keng Road 384002 Singapore", "Postalcode": 384002, "X-COORDINATES": 32347.182500, "Y-COORDINATES": 32819.186600 }, "geometry": { "type": "Point", "coordinates": [ 103.87238016970109, 1.313079277099329 ] } },
{ "type": "Feature", "properties": { "Name": "Katong Park Towers", "Address": "114A Arthur Road 439826 Singapore", "Postalcode": 439826, "X-COORDINATES": 34103.394700, "Y-COORDINATES": 31353.619000 }, "geometry": { "type": "Point", "coordinates": [ 103.88816031576776, 1.299824908198991 ] } },
{ "type": "Feature", "properties": { "Name": "Kent Residences", "Address": "23 Kent Road 219219 Singapore", "Postalcode": 219219, "X-COORDINATES": 30086.653200, "Y-COORDINATES": 33142.678000 }, "geometry": { "type": "Point", "coordinates": [ 103.85206821586179, 1.316005055186112 ] } },
{ "type": "Feature", "properties": { "Name": "Kentish Green ", "Address": "20 Oxford Road 218815 Singapore", "Postalcode": 218815, "X-COORDINATES": 30055.393000, "Y-COORDINATES": 33097.886400 }, "geometry": { "type": "Point", "coordinates": [ 103.85178732415208, 1.315599977900601 ] } },
{ "type": "Feature", "properties": { "Name": "Kovan Melody", "Address": "13-37 Kovan Road 545018 Singapore", "Postalcode": 545018, "X-COORDINATES": 33500.405100, "Y-COORDINATES": 37940.798100 }, "geometry": { "type": "Point", "coordinates": [ 103.88274336980648, 1.359397113461196 ] } },
{ "type": "Feature", "properties": { "Name": "La Casa", "Address": "64 Woodlands Drive 16 737894 Singapore", "Postalcode": 737894, "X-COORDINATES": 24000.764100, "Y-COORDINATES": 46040.546700 }, "geometry": { "type": "Point", "coordinates": [ 103.79738167493481, 1.432648555703598 ] } },
{ "type": "Feature", "properties": { "Name": "Laguna Park", "Address": "5000A to 5000F Marine Parade Road 449287 Singapore", "Postalcode": 449287, "X-COORDINATES": 38852.718100, "Y-COORDINATES": 32373.359100 }, "geometry": { "type": "Point", "coordinates": [ 103.93083543741794, 1.309045769796915 ] } },
{ "type": "Feature", "properties": { "Name": "Le Reve", "Address": "17-31\/33 Kampong Eunos 417786 Singapore", "Postalcode": 417786, "X-COORDINATES": 36119.774900, "Y-COORDINATES": 33466.967500 }, "geometry": { "type": "Point", "coordinates": [ 103.90627893929494, 1.318936809930128 ] } },
{ "type": "Feature", "properties": { "Name": "Legenda @ Joo Chiat", "Address": "23 Joo Chiat Lane 428125 Singapore", "Postalcode": 428125, "X-COORDINATES": 35620.694200, "Y-COORDINATES": 32815.852200 }, "geometry": { "type": "Point", "coordinates": [ 103.90179428378516, 1.313048485518564 ] } },
{ "type": "Feature", "properties": { "Name": "Leith Grove", "Address": "6 Leith Park 547933 Singapore", "Postalcode": 547933, "X-COORDINATES": 32511.052900, "Y-COORDINATES": 38262.819900 }, "geometry": { "type": "Point", "coordinates": [ 103.87385343382425, 1.362309529685208 ] } },
{ "type": "Feature", "properties": { "Name": "Linear Green @ Bedok", "Address": " Bedok Central 461221 Singapore", "Postalcode": 461221, "X-COORDINATES": 39290.772800, "Y-COORDINATES": 34160.042000 }, "geometry": { "type": "Point", "coordinates": [ 103.93477221750136, 1.325203716250703 ] } },
{ "type": "Feature", "properties": { "Name": "Livia", "Address": "61\/63\/65\/69\/71\/73\/75\/77\/79\/81 Pasir Ris Grove 518215 Singapore", "Postalcode": 518215, "X-COORDINATES": 40297.440800, "Y-COORDINATES": 39372.471800 }, "geometry": { "type": "Point", "coordinates": [ 103.94381978351512, 1.37234260046748 ] } },
{ "type": "Feature", "properties": { "Name": "Lucky Plaza (Residential)", "Address": "304  Orchard Road 238863 Singapore", "Postalcode": 238863, "X-COORDINATES": 28077.686500, "Y-COORDINATES": 31858.199100 }, "geometry": { "type": "Point", "coordinates": [ 103.83401662857793, 1.304388751770123 ] } },
{ "type": "Feature", "properties": { "Name": "Lumiere", "Address": "2 Mistri Road  079624 Singapore", "Postalcode": 79624, "X-COORDINATES": 29414.134600, "Y-COORDINATES": 28526.992400 }, "geometry": { "type": "Point", "coordinates": [ 103.84602508781255, 1.274262456958766 ] } },
{ "type": "Feature", "properties": { "Name": "Malvern Springs", "Address": "373 Onan Road  424775 Singapore", "Postalcode": 424775, "X-COORDINATES": 35855.191500, "Y-COORDINATES": 32022.625500 }, "geometry": { "type": "Point", "coordinates": [ 103.90390115627947, 1.305874769497309 ] } },
{ "type": "Feature", "properties": { "Name": "Mandale Heights", "Address": "45 Mandalay Road 308225 Singapore", "Postalcode": 308225, "X-COORDINATES": 29825.086500, "Y-COORDINATES": 34063.671700 }, "geometry": { "type": "Point", "coordinates": [ 103.84971796106601, 1.324334213005884 ] } },
{ "type": "Feature", "properties": { "Name": "Meadow Lodge", "Address": "31 Chun Tin Road 599717 Singapore", "Postalcode": 599717, "X-COORDINATES": 21329.357700, "Y-COORDINATES": 35959.863100 }, "geometry": { "type": "Point", "coordinates": [ 103.77337887241001, 1.341482011460261 ] } },
{ "type": "Feature", "properties": { "Name": "Medge", "Address": "2 Minbu Road 308186 Singapore", "Postalcode": 308186, "X-COORDINATES": 29898.857500, "Y-COORDINATES": 33957.532400 }, "geometry": { "type": "Point", "coordinates": [ 103.85038082652905, 1.323374322262658 ] } },
{ "type": "Feature", "properties": { "Name": "Mera Springs", "Address": "81\/83 Carlisle Road 219648 Singapore", "Postalcode": 219648, "X-COORDINATES": 29487.049300, "Y-COORDINATES": 33006.755800 }, "geometry": { "type": "Point", "coordinates": [ 103.84668046446662, 1.314775857701968 ] } },
{ "type": "Feature", "properties": { "Name": "Meraprime", "Address": "301 Jalan Bukit Ho Swee 169568 Singapore", "Postalcode": 169568, "X-COORDINATES": 27384.440900, "Y-COORDINATES": 29941.920700 }, "geometry": { "type": "Point", "coordinates": [ 103.82778753172974, 1.287058597836088 ] } },
{ "type": "Feature", "properties": { "Name": "Meridian Block 173 - 176", "Address": "173-176 Punggol Field 820173 Singapore", "Postalcode": 820173, "X-COORDINATES": 36446.509100, "Y-COORDINATES": 42130.691200 }, "geometry": { "type": "Point", "coordinates": [ 103.90921725639113, 1.397288283039424 ] } },
{ "type": "Feature", "properties": { "Name": "Min Yuan", "Address": "62 Waterloo Street 187958 Singapore", "Postalcode": 187958, "X-COORDINATES": 30010.562700, "Y-COORDINATES": 31263.823400 }, "geometry": { "type": "Point", "coordinates": [ 103.85138438280525, 1.299013362429309 ] } },
{ "type": "Feature", "properties": { "Name": "Mint Residences @ Jansen", "Address": "20 Jansen Road 548411 Singapore", "Postalcode": 548411, "X-COORDINATES": 32908.319600, "Y-COORDINATES": 37992.783800 }, "geometry": { "type": "Point", "coordinates": [ 103.87742309821979, 1.359867357116226 ] } },
{ "type": "Feature", "properties": { "Name": "Montebleu", "Address": "8 Minbu Road 308162 Singapore", "Postalcode": 308162, "X-COORDINATES": 29867.832100, "Y-COORDINATES": 34002.692400 }, "geometry": { "type": "Point", "coordinates": [ 103.85010204951317, 1.323782735225024 ] } },
{ "type": "Feature", "properties": { "Name": "Monterey Park Condominium ", "Address": "23 West Coast Rise 127466 Singapore", "Postalcode": 127466, "X-COORDINATES": 19124.546600, "Y-COORDINATES": 33183.796800 }, "geometry": { "type": "Point", "coordinates": [ 103.75356814405257, 1.316375706103255 ] } },
{ "type": "Feature", "properties": { "Name": "Montview", "Address": "63 Mount Sinai Drive 277116 Singapore", "Postalcode": 277116, "X-COORDINATES": 21768.887900, "Y-COORDINATES": 33217.677900 }, "geometry": { "type": "Point", "coordinates": [ 103.77732887119397, 1.316682765582416 ] } },
{ "type": "Feature", "properties": { "Name": "Moonstone Residences", "Address": "25 Moonstone Lane 328465 Singapore", "Postalcode": 328465, "X-COORDINATES": 31644.424800, "Y-COORDINATES": 34369.365500 }, "geometry": { "type": "Point", "coordinates": [ 103.86606572734901, 1.327098636118085 ] } },
{ "type": "Feature", "properties": { "Name": "Nee Soon Central Estate", "Address": "642-647 Yishun Street 61 760642 Singapore", "Postalcode": 760642, "X-COORDINATES": 28459.411300, "Y-COORDINATES": 44749.165900 }, "geometry": { "type": "Point", "coordinates": [ 103.83744680142405, 1.420970054757607 ] } },
{ "type": "Feature", "properties": { "Name": "Newton 18", "Address": "18 Newton Road 307989 Singapore", "Postalcode": 307989, "X-COORDINATES": 28871.639600, "Y-COORDINATES": 32953.501000 }, "geometry": { "type": "Point", "coordinates": [ 103.84115069756569, 1.314294263681454 ] } },
{ "type": "Feature", "properties": { "Name": "Newton 200", "Address": "200 Newton Road 307983 Singapore", "Postalcode": 307983, "X-COORDINATES": 29092.120200, "Y-COORDINATES": 33442.088800 }, "geometry": { "type": "Point", "coordinates": [ 103.84313184343142, 1.318712872096138 ] } },
{ "type": "Feature", "properties": { "Name": "Newton Euro - Asia", "Address": "21 Newton Road 307954 Singapore", "Postalcode": 307954, "X-COORDINATES": 28794.867400, "Y-COORDINATES": 33020.564000 }, "geometry": { "type": "Point", "coordinates": [ 103.84046086261576, 1.314900759850554 ] } },
{ "type": "Feature", "properties": { "Name": "Nicole Green", "Address": "68 Guillemard Road 399710 Singapore", "Postalcode": 399710, "X-COORDINATES": 33178.622700, "Y-COORDINATES": 32401.814700 }, "geometry": { "type": "Point", "coordinates": [ 103.87985100101952, 1.309304585467962 ] } },
{ "type": "Feature", "properties": { "Name": "Nomu", "Address": "20 Handy Road 229236 Singapore", "Postalcode": 229236, "X-COORDINATES": 29518.444500, "Y-COORDINATES": 31351.843800 }, "geometry": { "type": "Point", "coordinates": [ 103.84696248541161, 1.299809415820667 ] } },
{ "type": "Feature", "properties": { "Name": "Northoaks", "Address": "20 Woodlands Crescent  738081 Singapore", "Postalcode": 738081, "X-COORDINATES": 24962.731100, "Y-COORDINATES": 47392.549300 }, "geometry": { "type": "Point", "coordinates": [ 103.80602570884717, 1.44487569581704 ] } },
{ "type": "Feature", "properties": { "Name": "Novena Suites", "Address": "200 Moulmein Road 308107 Singapore", "Postalcode": 308107, "X-COORDINATES": 29270.555900, "Y-COORDINATES": 33459.214100 }, "geometry": { "type": "Point", "coordinates": [ 103.84473518108203, 1.318867740384552 ] } },
{ "type": "Feature", "properties": { "Name": "Nuovo", "Address": "21 Ang Mo Kio Avenue 9 569786 Singapore", "Postalcode": 569786, "X-COORDINATES": 29011.793800, "Y-COORDINATES": 40701.841000 }, "geometry": { "type": "Point", "coordinates": [ 103.84241031298033, 1.384367490178655 ] } },
{ "type": "Feature", "properties": { "Name": "Oasis@Elias", "Address": "60 Elias Road 519938 Singapore", "Postalcode": 519938, "X-COORDINATES": 40054.541600, "Y-COORDINATES": 39882.714500 }, "geometry": { "type": "Point", "coordinates": [ 103.94163737293454, 1.376957145186797 ] } },
{ "type": "Feature", "properties": { "Name": "One - North Residences", "Address": "7 One-North Gateway 138642 Singapore", "Postalcode": 138642, "X-COORDINATES": 23168.743400, "Y-COORDINATES": 31616.706500 }, "geometry": { "type": "Point", "coordinates": [ 103.7899075304404, 1.302204401431089 ] } },
{ "type": "Feature", "properties": { "Name": "One @ Pulasan", "Address": "1 Pulasan Road 424366 Singapore", "Postalcode": 424366, "X-COORDINATES": 36098.626200, "Y-COORDINATES": 32747.432700 }, "geometry": { "type": "Point", "coordinates": [ 103.90608871892708, 1.312429602150694 ] } },
{ "type": "Feature", "properties": { "Name": "One Jervois", "Address": "3 Jervois Close  249009 Singapore", "Postalcode": 249009, "X-COORDINATES": 26924.647200, "Y-COORDINATES": 30602.963000 }, "geometry": { "type": "Point", "coordinates": [ 103.82365607674727, 1.293036819706277 ] } },
{ "type": "Feature", "properties": { "Name": "One Leicester", "Address": "1 Leicester Road 358828 Singapore", "Postalcode": 358828, "X-COORDINATES": 31788.154800, "Y-COORDINATES": 34627.234700 }, "geometry": { "type": "Point", "coordinates": [ 103.8673572516841, 1.329430695918713 ] } },
{ "type": "Feature", "properties": { "Name": "One Oxley Rise (Residential)", "Address": "1 Oxley Rise 238714 Singapore", "Postalcode": 238714, "X-COORDINATES": 28933.765800, "Y-COORDINATES": 31289.775600 }, "geometry": { "type": "Point", "coordinates": [ 103.84170888275166, 1.299248115902719 ] } },
{ "type": "Feature", "properties": { "Name": "One Shenton", "Address": "1 Shenton Way 068803 Singapore", "Postalcode": 68803, "X-COORDINATES": 29918.010100, "Y-COORDINATES": 29083.458400 }, "geometry": { "type": "Point", "coordinates": [ 103.85055262392855, 1.279294913842913 ] } },
{ "type": "Feature", "properties": { "Name": "One Tree Hill", "Address": "1A One Tree Hill 248669 Singapore", "Postalcode": 248669, "X-COORDINATES": 27036.068800, "Y-COORDINATES": 31456.379100 }, "geometry": { "type": "Point", "coordinates": [ 103.82465722094851, 1.300754818278853 ] } },
{ "type": "Feature", "properties": { "Name": "Orchard Grand Court Pte Ltd ", "Address": "131 Killiney Road 239571 Singapore", "Postalcode": 239571, "X-COORDINATES": 28581.237700, "Y-COORDINATES": 31076.149700 }, "geometry": { "type": "Point", "coordinates": [ 103.83854125609406, 1.297316167004127 ] } },
{ "type": "Feature", "properties": { "Name": "Orchard Parksuites", "Address": "11 Orchard Turn  238800 Singapore", "Postalcode": 238800, "X-COORDINATES": 27935.400400, "Y-COORDINATES": 31704.880500 }, "geometry": { "type": "Point", "coordinates": [ 103.83273812203579, 1.303002192378999 ] } },
{ "type": "Feature", "properties": { "Name": "Orchard Scotts", "Address": "7 Anthony Road 229955 Singapore", "Postalcode": 229955, "X-COORDINATES": 28570.551100, "Y-COORDINATES": 32441.095200 }, "geometry": { "type": "Point", "coordinates": [ 103.83844525717652, 1.309660253487551 ] } },
{ "type": "Feature", "properties": { "Name": "Orion", "Address": "6C Orange Grove Road 258333 Singapore", "Postalcode": 258333, "X-COORDINATES": 27365.430300, "Y-COORDINATES": 32324.451000 }, "geometry": { "type": "Point", "coordinates": [ 103.8276166654188, 1.30860536316582 ] } },
{ "type": "Feature", "properties": { "Name": "Oxford Suites", "Address": "21 Oxford Road 218817 Singapore", "Postalcode": 218817, "X-COORDINATES": 30133.523500, "Y-COORDINATES": 33091.668500 }, "geometry": { "type": "Point", "coordinates": [ 103.85248936573149, 1.315543740087203 ] } },
{ "type": "Feature", "properties": { "Name": "Palm Oasis", "Address": "51 Telok Kurau Lorong H 426052 Singapore", "Postalcode": 426052, "X-COORDINATES": 36365.778200, "Y-COORDINATES": 33156.371800 }, "geometry": { "type": "Point", "coordinates": [ 103.90848932023539, 1.316127828383087 ] } },
{ "type": "Feature", "properties": { "Name": "Palm Residence", "Address": "7 Jalan Rajawali 598429 Singapore", "Postalcode": 598429, "X-COORDINATES": 20863.117800, "Y-COORDINATES": 36157.566700 }, "geometry": { "type": "Point", "coordinates": [ 103.76918938345824, 1.343269864589578 ] } },
{ "type": "Feature", "properties": { "Name": "Palm Vista", "Address": "47 Lorong G Telok Kurau 426224 Singapore", "Postalcode": 426224, "X-COORDINATES": 36487.892600, "Y-COORDINATES": 33281.666800 }, "geometry": { "type": "Point", "coordinates": [ 103.9095866135584, 1.317260917585484 ] } },
{ "type": "Feature", "properties": { "Name": "Pandan Valley Condominium MCST 581", "Address": "3 Pandan Valley 597627 Singapore", "Postalcode": 597627, "X-COORDINATES": 22002.151000, "Y-COORDINATES": 33573.344100 }, "geometry": { "type": "Point", "coordinates": [ 103.77942478884329, 1.319899330101223 ] } },
{ "type": "Feature", "properties": { "Name": "Paradise Palms", "Address": "505 Dunman Road 439198 Singapore", "Postalcode": 439198, "X-COORDINATES": 34900.222600, "Y-COORDINATES": 32473.801700 }, "geometry": { "type": "Point", "coordinates": [ 103.89532041686905, 1.309955273262923 ] } },
{ "type": "Feature", "properties": { "Name": "Parc Emily", "Address": "9  Mount Emily Road 228492 Singapore", "Postalcode": 228492, "X-COORDINATES": 29712.742600, "Y-COORDINATES": 31789.612500 }, "geometry": { "type": "Point", "coordinates": [ 103.84870836509386, 1.303768431572377 ] } },
{ "type": "Feature", "properties": { "Name": "Parc Mackenzie", "Address": "68 Mackenzie road 228687 Singapore", "Postalcode": 228687, "X-COORDINATES": 29620.160200, "Y-COORDINATES": 32064.610300 }, "geometry": { "type": "Point", "coordinates": [ 103.84787648363296, 1.306255419677918 ] } },
{ "type": "Feature", "properties": { "Name": "Parc Oasis", "Address": "35 Jurong East Avenue 1 609774 Singapore", "Postalcode": 609774, "X-COORDINATES": 16949.762100, "Y-COORDINATES": 36226.745300 }, "geometry": { "type": "Point", "coordinates": [ 103.7340255237021, 1.343894306936138 ] } },
{ "type": "Feature", "properties": { "Name": "Paterson Residences", "Address": "71\/75\/83 Paterson Road 238545 Singapore", "Postalcode": 238545, "X-COORDINATES": 27608.824000, "Y-COORDINATES": 31423.133500 }, "geometry": { "type": "Point", "coordinates": [ 103.8298036861534, 1.3004541693005 ] } },
{ "type": "Feature", "properties": { "Name": "Pearl's Centre (Residential)", "Address": "100 Eu Tong Sen Street 059812 Singapore", "Postalcode": 59812, "X-COORDINATES": 28815.536300, "Y-COORDINATES": 29348.562800 }, "geometry": { "type": "Point", "coordinates": [ 103.84064648765911, 1.281692472731874 ] } },
{ "type": "Feature", "properties": { "Name": "Platinum Edge", "Address": "18 Leicester Road 358847 Singapore", "Postalcode": 358847, "X-COORDINATES": 31731.463100, "Y-COORDINATES": 34744.780700 }, "geometry": { "type": "Point", "coordinates": [ 103.86684785970444, 1.330493747141323 ] } },
{ "type": "Feature", "properties": { "Name": "Pristine Heights", "Address": "77 Mergui Road 219053 Singapore", "Postalcode": 219053, "X-COORDINATES": 30067.382500, "Y-COORDINATES": 33245.987900 }, "geometry": { "type": "Point", "coordinates": [ 103.85189506576931, 1.31693935468974 ] } },
{ "type": "Feature", "properties": { "Name": "Proximo", "Address": "27 Robin Road 258204 Singapore", "Postalcode": 258204, "X-COORDINATES": 27491.922400, "Y-COORDINATES": 33292.741000 }, "geometry": { "type": "Point", "coordinates": [ 103.82875324179531, 1.317362238525344 ] } },
{ "type": "Feature", "properties": { "Name": "Punggol Breeze", "Address": "Blk 616A to Blk 616D Punggol Drive 821616 Singapore", "Postalcode": 821616, "X-COORDINATES": 36832.581200, "Y-COORDINATES": 42572.203200 }, "geometry": { "type": "Point", "coordinates": [ 103.91268655671807, 1.401281039701626 ] } },
{ "type": "Feature", "properties": { "Name": "Punggol Central Block 293-299 ", "Address": "293 -299 Punggol Central 820293 Singapore", "Postalcode": 820293, "X-COORDINATES": 35971.082200, "Y-COORDINATES": 42770.606000 }, "geometry": { "type": "Point", "coordinates": [ 103.9049453412336, 1.403075572871283 ] } },
{ "type": "Feature", "properties": { "Name": "Punggol Eastdale", "Address": "643 - 652 Punggol Eastdale 820643 Singapore", "Postalcode": 820643, "X-COORDINATES": 37203.405100, "Y-COORDINATES": 42134.164100 }, "geometry": { "type": "Point", "coordinates": [ 103.91601857225649, 1.397319459691103 ] } },
{ "type": "Feature", "properties": { "Name": "Punggol Field ", "Address": "200 - 205A Punggol Field 820200 Singapore", "Postalcode": 820200, "X-COORDINATES": 35762.757700, "Y-COORDINATES": 42351.713100 }, "geometry": { "type": "Point", "coordinates": [ 103.90307326230592, 1.399287315818149 ] } },
{ "type": "Feature", "properties": { "Name": "Punggol Field Block 196-199", "Address": "196 - 199 Punggol Field 820196 Singapore", "Postalcode": 820196, "X-COORDINATES": 36206.322200, "Y-COORDINATES": 42360.747700 }, "geometry": { "type": "Point", "coordinates": [ 103.90705905004394, 1.399368898784359 ] } },
{ "type": "Feature", "properties": { "Name": "Punggol Field Walk ", "Address": "125 - 126D Punggol Field Walk 820125 Singapore", "Postalcode": 820125, "X-COORDINATES": 36686.111400, "Y-COORDINATES": 41759.011900 }, "geometry": { "type": "Point", "coordinates": [ 103.91137016365514, 1.393926881084569 ] } },
{ "type": "Feature", "properties": { "Name": "Punggol Field Walk Block 127-128D", "Address": "127-128D Punggol Field Walk 820128 Singapore", "Postalcode": 820128, "X-COORDINATES": 36818.229700, "Y-COORDINATES": 41649.110700 }, "geometry": { "type": "Point", "coordinates": [ 103.91255731717501, 1.392932935146657 ] } },
{ "type": "Feature", "properties": { "Name": "Punggol Gardens ", "Address": "160 - 166B Punggol Central 821160 Singapore", "Postalcode": 821160, "X-COORDINATES": 37168.876700, "Y-COORDINATES": 41912.198900 }, "geometry": { "type": "Point", "coordinates": [ 103.91570823716354, 1.395312099198821 ] } },
{ "type": "Feature", "properties": { "Name": "Punggol Lodge", "Address": " Punggol Road 823603 Singapore", "Postalcode": 823603, "X-COORDINATES": 36307.739500, "Y-COORDINATES": 42799.103400 }, "geometry": { "type": "Point", "coordinates": [ 103.90797049184184, 1.403333197741386 ] } },
{ "type": "Feature", "properties": { "Name": "Punggol Spring", "Address": "614A Edgefield Plains  821614 Singapore", "Postalcode": 821614, "X-COORDINATES": 36451.695100, "Y-COORDINATES": 42826.863900 }, "geometry": { "type": "Point", "coordinates": [ 103.90926405935728, 1.403584211602353 ] } },
{ "type": "Feature", "properties": { "Name": "Punggol Vista", "Address": " Punggol Vista  822602 Singapore", "Postalcode": 822602, "X-COORDINATES": 36184.552000, "Y-COORDINATES": 42763.667800 }, "geometry": { "type": "Point", "coordinates": [ 103.90686354083908, 1.403012766464342 ] } },
{ "type": "Feature", "properties": { "Name": "Quinterra", "Address": "359 Holland Road 278636 Singapore", "Postalcode": 278636, "X-COORDINATES": 22142.600000, "Y-COORDINATES": 33433.075500 }, "geometry": { "type": "Point", "coordinates": [ 103.78068682239949, 1.318630818194247 ] } },
{ "type": "Feature", "properties": { "Name": "Rafflesia Condominium", "Address": "31 Bishan Street 21 579800 Singapore", "Postalcode": 579800, "X-COORDINATES": 29112.518100, "Y-COORDINATES": 36679.692100 }, "geometry": { "type": "Point", "coordinates": [ 103.8433152470356, 1.347992607744917 ] } },
{ "type": "Feature", "properties": { "Name": "Reflections @ Keppel Bay", "Address": "1-33 Keppel Bay View 098405 Singapore", "Postalcode": 98405, "X-COORDINATES": 25772.218100, "Y-COORDINATES": 27704.163800 }, "geometry": { "type": "Point", "coordinates": [ 103.81330121460773, 1.266821036529781 ] } },
{ "type": "Feature", "properties": { "Name": "Regency House (Residential)", "Address": "121 Penang Road 238464 Singapore", "Postalcode": 238464, "X-COORDINATES": 28971.414100, "Y-COORDINATES": 31313.916300 }, "geometry": { "type": "Point", "coordinates": [ 103.84204717031824, 1.299466434743919 ] } },
{ "type": "Feature", "properties": { "Name": "Regency Suites", "Address": "38 Kim Tian Road 169279 Singapore", "Postalcode": 169279, "X-COORDINATES": 27534.786300, "Y-COORDINATES": 29641.427600 }, "geometry": { "type": "Point", "coordinates": [ 103.82913845041136, 1.284341046301021 ] } },
{ "type": "Feature", "properties": { "Name": "Residence 66 ", "Address": "66 Telok Kurau Road 423788 Singapore", "Postalcode": 423788, "X-COORDINATES": 36385.254300, "Y-COORDINATES": 33189.301900 }, "geometry": { "type": "Point", "coordinates": [ 103.90866433166275, 1.316425631006227 ] } },
{ "type": "Feature", "properties": { "Name": "Residences @ Jansen ", "Address": "29 Jansen Road 548432 Singapore", "Postalcode": 548432, "X-COORDINATES": 32791.179900, "Y-COORDINATES": 38006.494800 }, "geometry": { "type": "Point", "coordinates": [ 103.87637052242697, 1.359991373593954 ] } },
{ "type": "Feature", "properties": { "Name": "Rio Gardens", "Address": "55B Jalan Taman 329001 Singapore", "Postalcode": 329001, "X-COORDINATES": 31452.334600, "Y-COORDINATES": 34315.647400 }, "geometry": { "type": "Point", "coordinates": [ 103.86433968606231, 1.326612851084413 ] } },
{ "type": "Feature", "properties": { "Name": "Ris Grandeur", "Address": "33 Elias Road 519935 Singapore", "Postalcode": 519935, "X-COORDINATES": 39907.235400, "Y-COORDINATES": 39588.844900 }, "geometry": { "type": "Point", "coordinates": [ 103.94031360314419, 1.374299558408905 ] } },
{ "type": "Feature", "properties": { "Name": "Ritz Regency", "Address": "8 Ipoh Lane 438611 Singapore", "Postalcode": 438611, "X-COORDINATES": 34838.602700, "Y-COORDINATES": 32630.020100 }, "geometry": { "type": "Point", "coordinates": [ 103.89476676690263, 1.311368070271471 ] } },
{ "type": "Feature", "properties": { "Name": "River Place", "Address": "60 Havelock Road 169658 Singapore", "Postalcode": 169658, "X-COORDINATES": 28885.636500, "Y-COORDINATES": 30224.010900 }, "geometry": { "type": "Point", "coordinates": [ 103.84127638946818, 1.289609716148431 ] } },
{ "type": "Feature", "properties": { "Name": "Robertson Edge", "Address": "18 Tong Watt Road 238010 Singapore", "Postalcode": 238010, "X-COORDINATES": 28803.521800, "Y-COORDINATES": 30609.095900 }, "geometry": { "type": "Point", "coordinates": [ 103.84053856474274, 1.293092291769545 ] } },
{ "type": "Feature", "properties": { "Name": "Rocca Balestier (Residential)", "Address": "221 Balestier Road 329928 Singapore", "Postalcode": 329928, "X-COORDINATES": 30137.607800, "Y-COORDINATES": 33727.683300 }, "geometry": { "type": "Point", "coordinates": [ 103.85252610927631, 1.321295632621856 ] } },
{ "type": "Feature", "properties": { "Name": "Rosyth Ville", "Address": "3 Rosyth Road 546134 Singapore", "Postalcode": 546134, "X-COORDINATES": 32553.364600, "Y-COORDINATES": 38328.205100 }, "geometry": { "type": "Point", "coordinates": [ 103.87423364291494, 1.362900843503229 ] } },
{ "type": "Feature", "properties": { "Name": "Sanctuary Green", "Address": "181 Tanjong Rhu Road 436922 Singapore", "Postalcode": 436922, "X-COORDINATES": 32277.126700, "Y-COORDINATES": 30927.412000 }, "geometry": { "type": "Point", "coordinates": [ 103.87175042421188, 1.295970747773046 ] } },
{ "type": "Feature", "properties": { "Name": "Scenic Heights", "Address": "245 Balestier Road 329929 Singapore", "Postalcode": 329929, "X-COORDINATES": 30097.982700, "Y-COORDINATES": 33764.200600 }, "geometry": { "type": "Point", "coordinates": [ 103.85217005941621, 1.321625884897538 ] } },
{ "type": "Feature", "properties": { "Name": "Scotts Highpark", "Address": "43 Scotts Road 228239 Singapore", "Postalcode": 228239, "X-COORDINATES": 28378.823500, "Y-COORDINATES": 32740.191400 }, "geometry": { "type": "Point", "coordinates": [ 103.83672249545738, 1.312365176944203 ] } },
{ "type": "Feature", "properties": { "Name": "Shahid Apartment Pte Ltd", "Address": "88 Owen Road 218901 Singapore", "Postalcode": 218901, "X-COORDINATES": 30246.597100, "Y-COORDINATES": 32861.128800 }, "geometry": { "type": "Point", "coordinates": [ 103.85350537238527, 1.313458812498285 ] } },
{ "type": "Feature", "properties": { "Name": "Shaw Plaza (Twin Heights)", "Address": "360 Balestier Road 329783 Singapore", "Postalcode": 329783, "X-COORDINATES": 29973.955500, "Y-COORDINATES": 34151.282900 }, "geometry": { "type": "Point", "coordinates": [ 103.85105563453816, 1.32512652840521 ] } },
{ "type": "Feature", "properties": { "Name": "Sheares Ville ", "Address": "9 Holt Road 249446 Singapore", "Postalcode": 249446, "X-COORDINATES": 27118.784800, "Y-COORDINATES": 30640.356300 }, "geometry": { "type": "Point", "coordinates": [ 103.8254004846349, 1.293374997653582 ] } },
{ "type": "Feature", "properties": { "Name": "Siglap Lucky Valley ", "Address": "67 Bedok South Avenue 3 460067 Singapore", "Postalcode": 460067, "X-COORDINATES": 40326.247200, "Y-COORDINATES": 33471.246400 }, "geometry": { "type": "Point", "coordinates": [ 103.9440762221618, 1.318974103084138 ] } },
{ "type": "Feature", "properties": { "Name": "SilverSea", "Address": "50 Marine Parade Road 449307 Singapore", "Postalcode": 449307, "X-COORDINATES": 35766.116700, "Y-COORDINATES": 31372.569600 }, "geometry": { "type": "Point", "coordinates": [ 103.90310061612857, 1.299995919747419 ] } },
{ "type": "Feature", "properties": { "Name": "Simei Road Block 155 to 166 ", "Address": "155-166 Simei Road 520155 Singapore", "Postalcode": 520155, "X-COORDINATES": 41899.069100, "Y-COORDINATES": 36315.904800 }, "geometry": { "type": "Point", "coordinates": [ 103.95821010592439, 1.344699451087779 ] } },
{ "type": "Feature", "properties": { "Name": "Simei Street 1 Block 135 and 138 ", "Address": "135\/138 Simei Street 1 520135 Singapore", "Postalcode": 520135, "X-COORDINATES": 41769.504500, "Y-COORDINATES": 36685.826900 }, "geometry": { "type": "Point", "coordinates": [ 103.95704606024077, 1.348044946903196 ] } },
{ "type": "Feature", "properties": { "Name": "Sims Green", "Address": "7 Lorong 27A Geylang 388133 Singapore", "Postalcode": 388133, "X-COORDINATES": 33710.434600, "Y-COORDINATES": 32966.398500 }, "geometry": { "type": "Point", "coordinates": [ 103.88462969011198, 1.314410386287866 ] } },
{ "type": "Feature", "properties": { "Name": "SkyPark @ Somerset ", "Address": "22 St Thomas Walk 238107 Singapore", "Postalcode": 238107, "X-COORDINATES": 28301.972400, "Y-COORDINATES": 31060.577500 }, "geometry": { "type": "Point", "coordinates": [ 103.83603193417009, 1.297175341450683 ] } },
{ "type": "Feature", "properties": { "Name": "Spring @ Katong", "Address": "18\/20 Ceylon Road 429748 Singapore", "Postalcode": 429748, "X-COORDINATES": 35799.518000, "Y-COORDINATES": 31993.314900 }, "geometry": { "type": "Point", "coordinates": [ 103.90340089670245, 1.305609709041456 ] } },
{ "type": "Feature", "properties": { "Name": "Strathmore Green", "Address": "62  Strathmore Avenue 142062 Singapore", "Postalcode": 142062, "X-COORDINATES": 25563.601400, "Y-COORDINATES": 30752.264700 }, "geometry": { "type": "Point", "coordinates": [ 103.81142648990212, 1.294386975142251 ] } },
{ "type": "Feature", "properties": { "Name": "SummerHill", "Address": "50\/52\/54\/56  Hume Avenue 596229 Singapore", "Postalcode": 596229, "X-COORDINATES": 20526.957300, "Y-COORDINATES": 37815.176400 }, "geometry": { "type": "Point", "coordinates": [ 103.76616836817684, 1.358260605081297 ] } },
{ "type": "Feature", "properties": { "Name": "Sun Plaza (Residential)", "Address": "30 Sembawang Drive  757713 Singapore", "Postalcode": 757713, "X-COORDINATES": 26457.993600, "Y-COORDINATES": 47763.055100 }, "geometry": { "type": "Point", "coordinates": [ 103.81946210273094, 1.44822653817213 ] } },
{ "type": "Feature", "properties": { "Name": "Sunglade", "Address": "1 Serangoon Avenue 2 556130 Singapore", "Postalcode": 556130, "X-COORDINATES": 32267.906300, "Y-COORDINATES": 36711.448300 }, "geometry": { "type": "Point", "coordinates": [ 103.87166837725063, 1.348279516410639 ] } },
{ "type": "Feature", "properties": { "Name": "Sunshine Mansions", "Address": "289 Joo Chiat Place 427970 Singapore", "Postalcode": 427970, "X-COORDINATES": 36288.187700, "Y-COORDINATES": 33019.611400 }, "geometry": { "type": "Point", "coordinates": [ 103.90779209415066, 1.314891037709349 ] } },
{ "type": "Feature", "properties": { "Name": "Sunshine Plaza (Residential)", "Address": "91 Bencoolen Street  187652 Singapore", "Postalcode": 187652, "X-COORDINATES": 29989.262500, "Y-COORDINATES": 31404.655500 }, "geometry": { "type": "Point", "coordinates": [ 103.8511929999506, 1.300286999682496 ] } },
{ "type": "Feature", "properties": { "Name": "Tan Chong Tower (Residential)", "Address": "15 Queen Street 188537 Singapore", "Postalcode": 188537, "X-COORDINATES": 30155.616900, "Y-COORDINATES": 31152.900000 }, "geometry": { "type": "Point", "coordinates": [ 103.85268775188095, 1.298010200579858 ] } },
{ "type": "Feature", "properties": { "Name": "Tangerine Grove", "Address": "3 Paya Lebar Crescent 534239 Singapore", "Postalcode": 534239, "X-COORDINATES": 33259.603100, "Y-COORDINATES": 36930.084300 }, "geometry": { "type": "Point", "coordinates": [ 103.88057942743109, 1.350256624371817 ] } },
{ "type": "Feature", "properties": { "Name": "Tanglin Regency", "Address": "381\/383\/385 Tanglin Road 247965 Singapore", "Postalcode": 247965, "X-COORDINATES": 26072.318100, "Y-COORDINATES": 30493.193600 }, "geometry": { "type": "Point", "coordinates": [ 103.81599754399585, 1.292044062871764 ] } },
{ "type": "Feature", "properties": { "Name": "Tanglin Residences", "Address": "23 Saint Martin's Drive 258004 Singapore", "Postalcode": 258004, "X-COORDINATES": 26898.427600, "Y-COORDINATES": 32070.368400 }, "geometry": { "type": "Point", "coordinates": [ 103.82342043074431, 1.306307516577213 ] } },
{ "type": "Feature", "properties": { "Name": "Tanglin View", "Address": "150-156 Prince Charles Crescent 159012 Singapore", "Postalcode": 159012, "X-COORDINATES": 26336.019600, "Y-COORDINATES": 30469.409300 }, "geometry": { "type": "Point", "coordinates": [ 103.81836701444469, 1.291828981185985 ] } },
{ "type": "Feature", "properties": { "Name": "Teck Ghee Fire Post", "Address": "463 Ang Mo Kio Avenue 10 560463 Singapore", "Postalcode": 560463, "X-COORDINATES": 30689.728100, "Y-COORDINATES": 38775.686800 }, "geometry": { "type": "Point", "coordinates": [ 103.85748764879753, 1.366947935572038 ] } },
{ "type": "Feature", "properties": { "Name": "Teck Ghee Heartlands", "Address": "415A  Ang Mo Kio Avenue 8 561415 Singapore", "Postalcode": 561415, "X-COORDINATES": 30354.394200, "Y-COORDINATES": 38490.838800 }, "geometry": { "type": "Point", "coordinates": [ 103.85447441908187, 1.364371900670205 ] } },
{ "type": "Feature", "properties": { "Name": "Teck Ghee Vista", "Address": "303 Ang Mo Kio Avenue 1 560303 Singapore", "Postalcode": 560303, "X-COORDINATES": 29328.331500, "Y-COORDINATES": 38742.644400 }, "geometry": { "type": "Point", "coordinates": [ 103.84525455619455, 1.366649204370527 ] } },
{ "type": "Feature", "properties": { "Name": "Ten @ Suffolk", "Address": "10 Suffolk Road 307786 Singapore", "Postalcode": 307786, "X-COORDINATES": 29239.198200, "Y-COORDINATES": 32986.203200 }, "geometry": { "type": "Point", "coordinates": [ 103.84445339697564, 1.314589998228239 ] } },
{ "type": "Feature", "properties": { "Name": "Terrace View", "Address": "362 Terrace View 424758 Singapore", "Postalcode": 424758, "X-COORDINATES": 35805.555500, "Y-COORDINATES": 32065.379700 }, "geometry": { "type": "Point", "coordinates": [ 103.90345516449835, 1.306261435683644 ] } },
{ "type": "Feature", "properties": { "Name": "The Acacias", "Address": "21 Sommerville Road 358246 Singapore", "Postalcode": 358246, "X-COORDINATES": 31962.425900, "Y-COORDINATES": 36298.431000 }, "geometry": { "type": "Point", "coordinates": [ 103.86892339165125, 1.34454437738402 ] } },
{ "type": "Feature", "properties": { "Name": "The Ambra", "Address": "97 Lorong H Telok Kurau 426117 Singapore", "Postalcode": 426117, "X-COORDINATES": 36829.286300, "Y-COORDINATES": 33242.793500 }, "geometry": { "type": "Point", "coordinates": [ 103.91265419663449, 1.316909265170303 ] } },
{ "type": "Feature", "properties": { "Name": "The Ansley", "Address": "33 Mandalay Road 308214 Singapore", "Postalcode": 308214, "X-COORDINATES": 29726.824300, "Y-COORDINATES": 33946.476100 }, "geometry": { "type": "Point", "coordinates": [ 103.84883501588789, 1.323274343205575 ] } },
{ "type": "Feature", "properties": { "Name": "The Asteria", "Address": "9 Martia Road 424796 Singapore", "Postalcode": 424796, "X-COORDINATES": 36653.596600, "Y-COORDINATES": 32171.559300 }, "geometry": { "type": "Point", "coordinates": [ 103.91107523746108, 1.307221460072245 ] } },
{ "type": "Feature", "properties": { "Name": "The Bale", "Address": "8 Lorong H Telok Kurau 425991 Singapore", "Postalcode": 425991, "X-COORDINATES": 36130.195400, "Y-COORDINATES": 33040.291200 }, "geometry": { "type": "Point", "coordinates": [ 103.90637246047268, 1.315078100569274 ] } },
{ "type": "Feature", "properties": { "Name": "The Beacon Edge", "Address": "250 Tembeling Road 423728 Singapore", "Postalcode": 423728, "X-COORDINATES": 35972.766200, "Y-COORDINATES": 32161.974600 }, "geometry": { "type": "Point", "coordinates": [ 103.9049576552009, 1.307134962584876 ] } },
{ "type": "Feature", "properties": { "Name": "The Belleforte", "Address": "4\/6 Ah Hood Road 329973 Singapore", "Postalcode": 329973, "X-COORDINATES": 29299.049400, "Y-COORDINATES": 34359.504100 }, "geometry": { "type": "Point", "coordinates": [ 103.84499124791617, 1.327009643406226 ] } },
{ "type": "Feature", "properties": { "Name": "The Berth by The Cove", "Address": "228 Ocean Drive 098616 Singapore", "Postalcode": 98616, "X-COORDINATES": 29446.892200, "Y-COORDINATES": 25849.538000 }, "geometry": { "type": "Point", "coordinates": [ 103.84631930652965, 1.250048493728837 ] } },
{ "type": "Feature", "properties": { "Name": "The Botanic on Lloyd", "Address": "33 Lloyd Road 239106 Singapore", "Postalcode": 239106, "X-COORDINATES": 28689.655100, "Y-COORDINATES": 30994.019100 }, "geometry": { "type": "Point", "coordinates": [ 103.83951543240092, 1.296573404545266 ] } },
{ "type": "Feature", "properties": { "Name": "The Callista", "Address": "22 Mar Thoma Road 328702 Singapore", "Postalcode": 328702, "X-COORDINATES": 31283.829300, "Y-COORDINATES": 34415.421600 }, "geometry": { "type": "Point", "coordinates": [ 103.86282558497653, 1.327515192141509 ] } },
{ "type": "Feature", "properties": { "Name": "The Cathay Residences", "Address": "30 Mount Sophia 228464 Singapore", "Postalcode": 228464, "X-COORDINATES": 29599.864500, "Y-COORDINATES": 31325.448200 }, "geometry": { "type": "Point", "coordinates": [ 103.84769407933648, 1.299570699231905 ] } },
{ "type": "Feature", "properties": { "Name": "The Champagne", "Address": "380\/382 Changi Road 419832 Singapore", "Postalcode": 419832, "X-COORDINATES": 36600.812300, "Y-COORDINATES": 33404.411200 }, "geometry": { "type": "Point", "coordinates": [ 103.91060128811833, 1.318370942110561 ] } },
{ "type": "Feature", "properties": { "Name": "The Chuan", "Address": "31 Lorong Chuan 556820 Singapore", "Postalcode": 556820, "X-COORDINATES": 31019.623200, "Y-COORDINATES": 36889.252400 }, "geometry": { "type": "Point", "coordinates": [ 103.86045179435841, 1.349887665012172 ] } },
{ "type": "Feature", "properties": { "Name": "The Coris", "Address": "264-266 Compassvale Link 543265 Singapore", "Postalcode": 543265, "X-COORDINATES": 34972.069300, "Y-COORDINATES": 40449.942800 }, "geometry": { "type": "Point", "coordinates": [ 103.89596783437409, 1.382088599492138 ] } },
{ "type": "Feature", "properties": { "Name": "The Cornwall", "Address": "2 Cornwall Gardens 269632 Singapore", "Postalcode": 269632, "X-COORDINATES": 24361.759200, "Y-COORDINATES": 32710.314700 }, "geometry": { "type": "Point", "coordinates": [ 103.80062719337009, 1.312094769786564 ] } },
{ "type": "Feature", "properties": { "Name": "The Cosmopolitan", "Address": "200 Kim Seng Road 239471 Singapore", "Postalcode": 239471, "X-COORDINATES": 27899.572300, "Y-COORDINATES": 30906.506400 }, "geometry": { "type": "Point", "coordinates": [ 103.83241619265313, 1.295781977893004 ] } },
{ "type": "Feature", "properties": { "Name": "The Cotz", "Address": "171 Telok Kurau Road  423824 Singapore", "Postalcode": 423824, "X-COORDINATES": 36629.423700, "Y-COORDINATES": 32849.771900 }, "geometry": { "type": "Point", "coordinates": [ 103.91085822120763, 1.313354976716071 ] } },
{ "type": "Feature", "properties": { "Name": "The Dew", "Address": "30\/32\/34 Bukit Batok Street 21 659636 Singapore", "Postalcode": 659636, "X-COORDINATES": 19386.703200, "Y-COORDINATES": 36536.332900 }, "geometry": { "type": "Point", "coordinates": [ 103.755922806383, 1.346694901739012 ] } },
{ "type": "Feature", "properties": { "Name": "The Edge on Cairnhill", "Address": "130 Cairnhill Road 229717 Singapore", "Postalcode": 229717, "X-COORDINATES": 28424.203000, "Y-COORDINATES": 32349.386600 }, "geometry": { "type": "Point", "coordinates": [ 103.83713024736151, 1.308830875602828 ] } },
{ "type": "Feature", "properties": { "Name": "The Esta", "Address": "31 Amber Gardens  439966 Singapore", "Postalcode": 439966, "X-COORDINATES": 35390.990600, "Y-COORDINATES": 31568.198600 }, "geometry": { "type": "Point", "coordinates": [ 103.89972998790989, 1.301765209815132 ] } },
{ "type": "Feature", "properties": { "Name": "The Fernhill", "Address": "1 Fernhill Road 259049 Singapore", "Postalcode": 259049, "X-COORDINATES": 27181.669000, "Y-COORDINATES": 32959.850500 }, "geometry": { "type": "Point", "coordinates": [ 103.82596546501924, 1.314351687692634 ] } },
{ "type": "Feature", "properties": { "Name": "The Foliage", "Address": "370 Pasir Panjang Road 118707 Singapore", "Postalcode": 118707, "X-COORDINATES": 21433.919200, "Y-COORDINATES": 30365.071000 }, "geometry": { "type": "Point", "coordinates": [ 103.77431960899219, 1.290884737506181 ] } },
{ "type": "Feature", "properties": { "Name": "The Gardens at Bishan", "Address": "1\/3\/5\/7\/9 Sin Ming Walk 575576 Singapore", "Postalcode": 575576, "X-COORDINATES": 27790.739200, "Y-COORDINATES": 38477.089000 }, "geometry": { "type": "Point", "coordinates": [ 103.83143822765598, 1.364247645100799 ] } },
{ "type": "Feature", "properties": { "Name": "The Glacier", "Address": "258-260 Joo Chiat Place 427940 Singapore", "Postalcode": 427940, "X-COORDINATES": 36221.182200, "Y-COORDINATES": 32954.808300 }, "geometry": { "type": "Point", "coordinates": [ 103.90718999931168, 1.314304999838108 ] } },
{ "type": "Feature", "properties": { "Name": "The Grandhill", "Address": "39 Pasir Panjang Hill 118860 Singapore", "Postalcode": 118860, "X-COORDINATES": 22608.007400, "Y-COORDINATES": 29341.297900 }, "geometry": { "type": "Point", "coordinates": [ 103.78486945224716, 1.281626320614204 ] } },
{ "type": "Feature", "properties": { "Name": "The Heliconia", "Address": "30 Jalan Daud 419572 Singapore", "Postalcode": 419572, "X-COORDINATES": 36411.475000, "Y-COORDINATES": 34287.015200 }, "geometry": { "type": "Point", "coordinates": [ 103.90890023777392, 1.326352946158437 ] } },
{ "type": "Feature", "properties": { "Name": "The Horizon", "Address": "1 Holt Road 249441 Singapore", "Postalcode": 249441, "X-COORDINATES": 27269.891000, "Y-COORDINATES": 30766.072700 }, "geometry": { "type": "Point", "coordinates": [ 103.82675823539206, 1.294511936478789 ] } },
{ "type": "Feature", "properties": { "Name": "The Infiniti", "Address": "39C West Coast Road 127714 Singapore", "Postalcode": 127714, "X-COORDINATES": 19327.167000, "Y-COORDINATES": 33475.925800 }, "geometry": { "type": "Point", "coordinates": [ 103.75538870750334, 1.319017673059033 ] } },
{ "type": "Feature", "properties": { "Name": "The Interlace", "Address": "200 Depot Road 109694 Singapore", "Postalcode": 109694, "X-COORDINATES": 24699.470400, "Y-COORDINATES": 29406.657300 }, "geometry": { "type": "Point", "coordinates": [ 103.80366204257454, 1.282217696490864 ] } },
{ "type": "Feature", "properties": { "Name": "The Jade", "Address": "9 Bukit Batok Central Link 658074 Singapore", "Postalcode": 658074, "X-COORDINATES": 18606.028000, "Y-COORDINATES": 36791.326200 }, "geometry": { "type": "Point", "coordinates": [ 103.74890788475135, 1.349000733642065 ] } },
{ "type": "Feature", "properties": { "Name": "The LadyHill", "Address": "1 Lady Hill Road 258670 Singapore", "Postalcode": 258670, "X-COORDINATES": 27078.681600, "Y-COORDINATES": 32527.059200 }, "geometry": { "type": "Point", "coordinates": [ 103.825040084519, 1.310437673014999 ] } },
{ "type": "Feature", "properties": { "Name": "The Levelz", "Address": "38 Farrer Road 268836 Singapore", "Postalcode": 268836, "X-COORDINATES": 24848.049500, "Y-COORDINATES": 32869.267400 }, "geometry": { "type": "Point", "coordinates": [ 103.80499673469187, 1.313532335378762 ] } },
{ "type": "Feature", "properties": { "Name": "The Light at Cairnhill", "Address": "19 Cairnhill Circle 229768 Singapore", "Postalcode": 229768, "X-COORDINATES": 28566.970600, "Y-COORDINATES": 32085.937100 }, "geometry": { "type": "Point", "coordinates": [ 103.83841307819097, 1.306448328921786 ] } },
{ "type": "Feature", "properties": { "Name": "The Linc", "Address": "7 Lincoln Road 308346 Singapore", "Postalcode": 308346, "X-COORDINATES": 29022.357200, "Y-COORDINATES": 32975.645000 }, "geometry": { "type": "Point", "coordinates": [ 103.84250497141849, 1.314494521562701 ] } },
{ "type": "Feature", "properties": { "Name": "The Linear", "Address": "880 Upper Bukit Timah Road 678181 Singapore", "Postalcode": 678181, "X-COORDINATES": 20157.318600, "Y-COORDINATES": 39709.780100 }, "geometry": { "type": "Point", "coordinates": [ 103.76284642306769, 1.375394616519698 ] } },
{ "type": "Feature", "properties": { "Name": "The Luxe (Residential)", "Address": "6 Handy Road 229234 Singapore", "Postalcode": 229234, "X-COORDINATES": 29543.263400, "Y-COORDINATES": 31334.207600 }, "geometry": { "type": "Point", "coordinates": [ 103.84718549350778, 1.299649919018627 ] } },
{ "type": "Feature", "properties": { "Name": "The Marbella", "Address": "29 Mount Sinai Rise 276952 Singapore", "Postalcode": 276952, "X-COORDINATES": 21929.710900, "Y-COORDINATES": 33000.804500 }, "geometry": { "type": "Point", "coordinates": [ 103.77877398971742, 1.314721472273519 ] } },
{ "type": "Feature", "properties": { "Name": "The Mayfair", "Address": "1 Jurong East Street 32 609477 Singapore", "Postalcode": 609477, "X-COORDINATES": 16882.437200, "Y-COORDINATES": 36353.631100 }, "geometry": { "type": "Point", "coordinates": [ 103.73342052281792, 1.345041790456191 ] } },
{ "type": "Feature", "properties": { "Name": "The Maylea", "Address": "242E Pasir Panjang Road 117494 Singapore", "Postalcode": 117494, "X-COORDINATES": 22671.878900, "Y-COORDINATES": 29218.428800 }, "geometry": { "type": "Point", "coordinates": [ 103.78544338273278, 1.280515146808571 ] } },
{ "type": "Feature", "properties": { "Name": "The Meadows", "Address": "637A-642D  Punggol Drive 821637 Singapore", "Postalcode": 821637, "X-COORDINATES": 37045.199200, "Y-COORDINATES": 42396.687300 }, "geometry": { "type": "Point", "coordinates": [ 103.91459704768668, 1.399693672694617 ] } },
{ "type": "Feature", "properties": { "Name": "The Merlot", "Address": "101 Keng Lee Road 219261 Singapore", "Postalcode": 219261, "X-COORDINATES": 29448.487800, "Y-COORDINATES": 32947.377400 }, "geometry": { "type": "Point", "coordinates": [ 103.84633396723753, 1.314238862267953 ] } },
{ "type": "Feature", "properties": { "Name": "The Metropolitan Condominium", "Address": "8 Alexandra View 158747 Singapore", "Postalcode": 158747, "X-COORDINATES": 26074.421100, "Y-COORDINATES": 30319.953700 }, "geometry": { "type": "Point", "coordinates": [ 103.81601645093967, 1.290477342285031 ] } },
{ "type": "Feature", "properties": { "Name": "The Mornington", "Address": "16 Saint Michael's Road 328005 Singapore", "Postalcode": 328005, "X-COORDINATES": 31413.819000, "Y-COORDINATES": 34268.454400 }, "geometry": { "type": "Point", "coordinates": [ 103.86399359719616, 1.326186058694752 ] } },
{ "type": "Feature", "properties": { "Name": "The Naturalis", "Address": "2 Lorong M Telok Kurau 425279 Singapore", "Postalcode": 425279, "X-COORDINATES": 36366.590100, "Y-COORDINATES": 32447.196500 }, "geometry": { "type": "Point", "coordinates": [ 103.90849642402411, 1.309714302576636 ] } },
{ "type": "Feature", "properties": { "Name": "The Palette", "Address": "103 Pasir Ris Grove 518196 Singapore", "Postalcode": 518196, "X-COORDINATES": 40403.890000, "Y-COORDINATES": 39147.679000 }, "geometry": { "type": "Point", "coordinates": [ 103.94477620964423, 1.370309613908385 ] } },
{ "type": "Feature", "properties": { "Name": "The Paterson", "Address": "63 Paterson Road 238539 Singapore", "Postalcode": 238539, "X-COORDINATES": 27696.098800, "Y-COORDINATES": 31424.576700 }, "geometry": { "type": "Point", "coordinates": [ 103.83058788964173, 1.300467222074194 ] } },
{ "type": "Feature", "properties": { "Name": "The Peak @ Toa Payoh", "Address": "138  Lorong 1A Toa Payoh 310138 Singapore", "Postalcode": 310138, "X-COORDINATES": 29277.326000, "Y-COORDINATES": 35430.201100 }, "geometry": { "type": "Point", "coordinates": [ 103.84479609603446, 1.33669264845928 ] } },
{ "type": "Feature", "properties": { "Name": "The Pearl @ Mount Faber", "Address": "3 Mount Faber Road 099207 Singapore", "Postalcode": 99207, "X-COORDINATES": 27001.486900, "Y-COORDINATES": 28121.533400 }, "geometry": { "type": "Point", "coordinates": [ 103.82434659237697, 1.270595643411478 ] } },
{ "type": "Feature", "properties": { "Name": "The Pier at Robertson (Residential)  ", "Address": "80 Mohamed Sultan Road 239013 Singapore", "Postalcode": 239013, "X-COORDINATES": 28805.142500, "Y-COORDINATES": 30423.939000 }, "geometry": { "type": "Point", "coordinates": [ 103.84055312269427, 1.291417797804979 ] } },
{ "type": "Feature", "properties": { "Name": "The Pinnacle @ Duxton", "Address": "1 Cantoment Road 080001 Singapore", "Postalcode": 80001, "X-COORDINATES": 28883.932000, "Y-COORDINATES": 28833.534400 }, "geometry": { "type": "Point", "coordinates": [ 103.8412610351138, 1.277034734604611 ] } },
{ "type": "Feature", "properties": { "Name": "The Quintet", "Address": "36 Choa Chu Kang Street 64 689101 Singapore", "Postalcode": 689101, "X-COORDINATES": 18789.935800, "Y-COORDINATES": 42290.741200 }, "geometry": { "type": "Point", "coordinates": [ 103.750558698134, 1.398735482073724 ] } },
{ "type": "Feature", "properties": { "Name": "The Residences at W Sentosa Cove", "Address": "1 Ocean Way 098367 Singapore", "Postalcode": 98367, "X-COORDINATES": 28914.207100, "Y-COORDINATES": 25748.023200 }, "geometry": { "type": "Point", "coordinates": [ 103.84153298061635, 1.24913044868668 ] } },
{ "type": "Feature", "properties": { "Name": "The River Vista @ Kallang", "Address": "38A - D\/39 Bendemeer Road 331038 Singapore", "Postalcode": 331038, "X-COORDINATES": 31741.670600, "Y-COORDINATES": 33590.846800 }, "geometry": { "type": "Point", "coordinates": [ 103.86693943912546, 1.32005797777181 ] } },
{ "type": "Feature", "properties": { "Name": "The Sail @ Marina Bay ", "Address": "6 Raffles Boulevard 018985 Singapore", "Postalcode": 18985, "X-COORDINATES": 30152.382800, "Y-COORDINATES": 29246.505000 }, "geometry": { "type": "Point", "coordinates": [ 103.85265856205029, 1.280769434961792 ] } },
{ "type": "Feature", "properties": { "Name": "The Sentinel", "Address": "3 Surrey Road 307743 Singapore", "Postalcode": 307743, "X-COORDINATES": 28982.251900, "Y-COORDINATES": 33172.092500 }, "geometry": { "type": "Point", "coordinates": [ 103.84214461141477, 1.316271124674649 ] } },
{ "type": "Feature", "properties": { "Name": "The Serenade @ Holland", "Address": "371 Holland Road 278698 Singapore", "Postalcode": 278698, "X-COORDINATES": 22050.418100, "Y-COORDINATES": 33414.702300 }, "geometry": { "type": "Point", "coordinates": [ 103.77985852432208, 1.318464639771353 ] } },
{ "type": "Feature", "properties": { "Name": "The Spring", "Address": "3 Moulmein Rise 308144 Singapore", "Postalcode": 308144, "X-COORDINATES": 29484.321900, "Y-COORDINATES": 33486.841100 }, "geometry": { "type": "Point", "coordinates": [ 103.84665598046077, 1.319117579603238 ] } },
{ "type": "Feature", "properties": { "Name": "The Suites @ Central", "Address": "57A Devonshire Road 239897 Singapore", "Postalcode": 239897, "X-COORDINATES": 28401.482500, "Y-COORDINATES": 31210.686900 }, "geometry": { "type": "Point", "coordinates": [ 103.83692607813336, 1.298532876931885 ] } },
{ "type": "Feature", "properties": { "Name": "The Taipan", "Address": "25 Jalan Hajijah 468721 Singapore", "Postalcode": 468721, "X-COORDINATES": 39308.153300, "Y-COORDINATES": 32734.045400 }, "geometry": { "type": "Point", "coordinates": [ 103.93492786754041, 1.312307520818074 ] } },
{ "type": "Feature", "properties": { "Name": "The Tomlinson", "Address": "20 Cuscaden Road 249726 Singapore", "Postalcode": 249726, "X-COORDINATES": 27194.403200, "Y-COORDINATES": 31861.176500 }, "geometry": { "type": "Point", "coordinates": [ 103.8260799167457, 1.304415667900754 ] } },
{ "type": "Feature", "properties": { "Name": "The Trumps", "Address": "1 Jalan Kembangan 419154 Singapore", "Postalcode": 419154, "X-COORDINATES": 36921.990400, "Y-COORDINATES": 33587.440700 }, "geometry": { "type": "Point", "coordinates": [ 103.91348728915243, 1.320026102794571 ] } },
{ "type": "Feature", "properties": { "Name": "The View @ Meyer", "Address": "46 Meyer Road 437871 Singapore", "Postalcode": 437871, "X-COORDINATES": 33979.756200, "Y-COORDINATES": 31179.695100 }, "geometry": { "type": "Point", "coordinates": [ 103.88704933555383, 1.29825202637311 ] } },
{ "type": "Feature", "properties": { "Name": "The Vines", "Address": "12 Lorong Sarina 416736 Singapore", "Postalcode": 416736, "X-COORDINATES": 36312.504400, "Y-COORDINATES": 33516.935900 }, "geometry": { "type": "Point", "coordinates": [ 103.90801072562829, 1.319388654412482 ] } },
{ "type": "Feature", "properties": { "Name": "The Vision", "Address": "73  West Coast Crescent 128061 Singapore", "Postalcode": 128061, "X-COORDINATES": 20396.001600, "Y-COORDINATES": 31177.579800 }, "geometry": { "type": "Point", "coordinates": [ 103.76499329455436, 1.298232541154257 ] } },
{ "type": "Feature", "properties": { "Name": "The Warren", "Address": "37 - 59 Choa Chu Kang Loop 689675 Singapore", "Postalcode": 689675, "X-COORDINATES": 17936.924700, "Y-COORDINATES": 40886.554100 }, "geometry": { "type": "Point", "coordinates": [ 103.74289419316403, 1.386036249119975 ] } },
{ "type": "Feature", "properties": { "Name": "The Yardley", "Address": "571 Upper Serangoon Road 534798 Singapore", "Postalcode": 534798, "X-COORDINATES": 32275.587900, "Y-COORDINATES": 36648.326000 }, "geometry": { "type": "Point", "coordinates": [ 103.87173739226063, 1.347708659803018 ] } },
{ "type": "Feature", "properties": { "Name": "Tivela", "Address": "270\/270A\/271\/271A-C SengKang Central 540270 Singapore", "Postalcode": 540270, "X-COORDINATES": 34776.922100, "Y-COORDINATES": 40897.481200 }, "geometry": { "type": "Point", "coordinates": [ 103.8942143947628, 1.386136020048665 ] } },
{ "type": "Feature", "properties": { "Name": "Treelodge @ Punggol", "Address": "305 Punggol Road  820305 Singapore", "Postalcode": 820305, "X-COORDINATES": 36120.241900, "Y-COORDINATES": 43083.423300 }, "geometry": { "type": "Point", "coordinates": [ 103.90628575143766, 1.405904536006863 ] } },
{ "type": "Feature", "properties": { "Name": "Trevista", "Address": "25 Lorong 3 Toa Payoh 319583 Singapore", "Postalcode": 319583, "X-COORDINATES": 29497.644900, "Y-COORDINATES": 35585.273400 }, "geometry": { "type": "Point", "coordinates": [ 103.84677579708872, 1.338095057195672 ] } },
{ "type": "Feature", "properties": { "Name": "Tribeca By The Waterfront ", "Address": "60 Kim Seng Road  239497 Singapore", "Postalcode": 239497, "X-COORDINATES": 28131.357500, "Y-COORDINATES": 30385.039900 }, "geometry": { "type": "Point", "coordinates": [ 103.8344988814077, 1.291066018061047 ] } },
{ "type": "Feature", "properties": { "Name": "Tropics @ Haigsville", "Address": "3 Haigsville Drive 438702 Singapore", "Postalcode": 438702, "X-COORDINATES": 35195.429800, "Y-COORDINATES": 32498.265200 }, "geometry": { "type": "Point", "coordinates": [ 103.89797300091237, 1.310176444943563 ] } },
{ "type": "Feature", "properties": { "Name": "Twin Regency", "Address": "26 Kim Tian Road 169277 Singapore", "Postalcode": 169277, "X-COORDINATES": 27507.799600, "Y-COORDINATES": 29713.191400 }, "geometry": { "type": "Point", "coordinates": [ 103.82889596313011, 1.284990052513969 ] } },
{ "type": "Feature", "properties": { "Name": "Urban Edge @ Holland V", "Address": "2 Ford Avenue 268686 Singapore", "Postalcode": 268686, "X-COORDINATES": 23666.003400, "Y-COORDINATES": 32813.641700 }, "geometry": { "type": "Point", "coordinates": [ 103.79437547120992, 1.313029132389164 ] } },
{ "type": "Feature", "properties": { "Name": "Valley Point (Residential)", "Address": "491 River Valley Road 248371 Singapore", "Postalcode": 248371, "X-COORDINATES": 27290.209000, "Y-COORDINATES": 30600.864400 }, "geometry": { "type": "Point", "coordinates": [ 103.82694080511291, 1.293017851167562 ] } },
{ "type": "Feature", "properties": { "Name": "Varsity Park Condominium", "Address": "34 West Coast Road 127335 Singapore", "Postalcode": 127335, "X-COORDINATES": 20776.689000, "Y-COORDINATES": 30732.056600 }, "geometry": { "type": "Point", "coordinates": [ 103.76841404010594, 1.294203479337 ] } },
{ "type": "Feature", "properties": { "Name": "Ventuno Balmoral", "Address": "21 Balmoral Road 259805 Singapore", "Postalcode": 259805, "X-COORDINATES": 27959.604500, "Y-COORDINATES": 33137.575300 }, "geometry": { "type": "Point", "coordinates": [ 103.83295560508709, 1.315958978942695 ] } },
{ "type": "Feature", "properties": { "Name": "Vertis", "Address": "20 Amber Gardens 439979 Singapore", "Postalcode": 439979, "X-COORDINATES": 35432.323600, "Y-COORDINATES": 31517.617200 }, "geometry": { "type": "Point", "coordinates": [ 103.90010137149578, 1.301307759886592 ] } },
{ "type": "Feature", "properties": { "Name": "Vibes @ Kovan", "Address": "93 Kovan Road 548178 Singapore", "Postalcode": 548178, "X-COORDINATES": 32927.720200, "Y-COORDINATES": 37435.630100 }, "geometry": { "type": "Point", "coordinates": [ 103.87759733387389, 1.354828655807356 ] } },
{ "type": "Feature", "properties": { "Name": "Viento", "Address": "29  Lorong 30 Geylang 398362 Singapore", "Postalcode": 398362, "X-COORDINATES": 33920.866600, "Y-COORDINATES": 32723.190100 }, "geometry": { "type": "Point", "coordinates": [ 103.88652047984718, 1.312210856505412 ] } },
{ "type": "Feature", "properties": { "Name": "Visioncrest (Residential)", "Address": "35 Oxley Rise 238711 Singapore", "Postalcode": 238711, "X-COORDINATES": 29056.763600, "Y-COORDINATES": 31174.821500 }, "geometry": { "type": "Point", "coordinates": [ 103.84281406913615, 1.298208507556618 ] } },
{ "type": "Feature", "properties": { "Name": "Water Place", "Address": "177 Tanjong Rhu Road 436931 Singapore", "Postalcode": 436931, "X-COORDINATES": 32355.021500, "Y-COORDINATES": 31008.590800 }, "geometry": { "type": "Point", "coordinates": [ 103.87245035405039, 1.296704889336436 ] } },
{ "type": "Feature", "properties": { "Name": "Waterfront Waves", "Address": "760\/762\/764\/766\/768 Bedok Reservoir Road 479249 Singapore", "Postalcode": 479249, "X-COORDINATES": 38790.178400, "Y-COORDINATES": 35464.514500 }, "geometry": { "type": "Point", "coordinates": [ 103.93027457393099, 1.337001067708016 ] } },
{ "type": "Feature", "properties": { "Name": "Watermark Robertson Quay", "Address": "1 Rodyk Street 238212 Singapore", "Postalcode": 238212, "X-COORDINATES": 28559.539800, "Y-COORDINATES": 30370.764900 }, "geometry": { "type": "Point", "coordinates": [ 103.8383462783777, 1.290936915272483 ] } },
{ "type": "Feature", "properties": { "Name": "West Bay Condominium", "Address": "50 West Coast Crescent 128035 Singapore", "Postalcode": 128035, "X-COORDINATES": 20468.422700, "Y-COORDINATES": 31223.284900 }, "geometry": { "type": "Point", "coordinates": [ 103.76564401882921, 1.29864589932141 ] } },
{ "type": "Feature", "properties": { "Name": "Westcove ", "Address": "10 West Coast Crescent 128041 Singapore", "Postalcode": 128041, "X-COORDINATES": 20544.950800, "Y-COORDINATES": 31098.885600 }, "geometry": { "type": "Point", "coordinates": [ 103.76633168702307, 1.297520895031212 ] } },
{ "type": "Feature", "properties": { "Name": "Westmont", "Address": "15 West Coast Road 127300 Singapore", "Postalcode": 127300, "X-COORDINATES": 20645.018100, "Y-COORDINATES": 30586.121300 }, "geometry": { "type": "Point", "coordinates": [ 103.76723095542224, 1.292883661914101 ] } },
{ "type": "Feature", "properties": { "Name": "White Water", "Address": "23 Pasir Ris St 72 518765 Singapore", "Postalcode": 518765, "X-COORDINATES": 39352.741300, "Y-COORDINATES": 40187.074100 }, "geometry": { "type": "Point", "coordinates": [ 103.93533131255941, 1.379709940026634 ] } },
{ "type": "Feature", "properties": { "Name": "Yew Tee Residence", "Address": "21  Chua Chu Kang North 6  689578 Singapore", "Postalcode": 689578, "X-COORDINATES": 18344.713100, "Y-COORDINATES": 42132.239900 }, "geometry": { "type": "Point", "coordinates": [ 103.74655806749524, 1.397301909494996 ] } },
{ "type": "Feature", "properties": { "Name": "Yishun Central Block 302 - 308 ", "Address": "302 - 308 Yishun Central  760302 Singapore", "Postalcode": 760302, "X-COORDINATES": 28707.352200, "Y-COORDINATES": 45751.473200 }, "geometry": { "type": "Point", "coordinates": [ 103.83967479777327, 1.430034554584642 ] } },
{ "type": "Feature", "properties": { "Name": "Yong An Park Condominium (MCST 1267)", "Address": "331 River Valley Road 238363 Singapore", "Postalcode": 238363, "X-COORDINATES": 28098.324100, "Y-COORDINATES": 30788.843100 }, "geometry": { "type": "Point", "coordinates": [ 103.8342020637202, 1.294717872399201 ] } }
]
}
